guid,name,parent,address,phone,email,opening_balance,closing_balance,latitude,longitude,location_source
44acb1ff-18e7-40de-822e-c7f32ad504e4-00008200,06HCMPK9231G1ZB,Sundry Creditors,,,,0.0,0.0,,,not_found
44acb1ff-18e7-40de-822e-c7f32ad504e4-00008032,27AAGFB1004R1ZG,Sundry Creditors,,,,0.0,0.0,,,not_found
44acb1ff-18e7-40de-822e-c7f32ad504e4-00001463,3P Technologies (I) Pvt Ltd,Sundry Creditors,"Oxford Towers, 139, HAL Old Airport Rd, Kodihalli, Bengaluru, Karnataka 560008, India",,,0.0,0.0,12.9600273,77.64444639999999,geocoded
44acb1ff-18e7-40de-822e-c7f32ad504e4-00005c89,99 OFFICE SOLUTIONS,Sundry Creditors,"Road No. 33, Thane West, Thane, Maharashtra, India",,,0.0,0.0,19.2024631,72.9568534,geocoded
44acb1ff-18e7-40de-822e-c7f32ad504e4-000023f0,Aadinath  Peripherals,Sundry Creditors,"Shiv Mandir Rd, Dombivli East, Dombivli, Maharashtra 421201, India",,abhik.shah@rediffmail.com,0.0,0.0,19.2141519,73.0885087,geocoded
44acb1ff-18e7-40de-822e-c7f32ad504e4-00001dcf,A.A.Enterprises,Sundry Creditors,"Amar Mahal, Indira Nagar, Tilak Nagar, Chembur, Mumbai, Maharashtra 400089, India",02224230843,,0.0,0.0,19.0683156,72.89988389999999,geocoded
44acb1ff-18e7-40de-822e-c7f32ad504e4-00003af8,Aakruti Enterprises,Sundry Creditors,"1st floor, Pearl Centre, 210, Senapati Bapat Marg, near Vegetable market, Dadar West, Dadar, Mumbai, Maharashtra 400028, India",02224315491242235032431341266120158,aakrutidadar@gmail.com,0.0,0.0,19.0222349,72.8440936,geocoded
44acb1ff-18e7-40de-822e-c7f32ad504e4-00005e7b,Aarav Tender Consultant Private Limited,Sundry Creditors,"H9Q9+5PP, Sadanand Nagar, Nagalpur, Mehsana, Gujarat 384002, India",6358934553,sales@gemtenderconsultant.in,0.0,0.0,23.5879607,72.36932519999999,geocoded
44acb1ff-18e7-40de-822e-c7f32ad504e4-00001db6,Aarvee Computers,Sundry Creditors,"Oshiwara Bus Depot, New Link Rd, Best Nagar, Goregaon West, Mumbai, Maharashtra 400104, India",,vinod@aarveecomputers.in,-18691.0,-18691.0,19.1528967,72.8371262,geocoded
44acb1ff-18e7-40de-822e-c7f32ad504e4-00003f40,Abc,Sundry Creditors,,,,0.0,0.0,,,not_found
44acb1ff-18e7-40de-822e-c7f32ad504e4-00008406,Abhinandan Ashtage,Sundry Creditors,,,,0.0,9616.0,,,not_found
44acb1ff-18e7-40de-822e-c7f32ad504e4-00008508,Abhinandan Baba,Sundry Creditors,,,,0.0,0.0,,,not_found
44acb1ff-18e7-40de-822e-c7f32ad504e4-00003732,Abhinav Buildmat Pvt Ltd,Sundry Creditors,"Lal Bahadur Shastri Marg & Meenatai Thakrey Chowk, Shrirang Society, Thane West, Thane, Maharashtra 400601, India",02241516600,project@abhinavbuildmat.com,0.0,0.0,19.2051037,72.9775812,geocoded
44acb1ff-18e7-40de-822e-c7f32ad504e4-000085be,Abhishek Anup Mishra,Sundry Creditors,,,,0.0,0.0,,,not_found
44acb1ff-18e7-40de-822e-c7f32ad504e4-0000317b,Abhishek Services,Sundry Creditors,"MD Cross Rd, Kandivali, Akurli Nagar, Kandivali East, Mumbai, Maharashtra 400101, India",7208066456,abhisekelec918@gmail.com,0.0,0.0,19.201703,72.8519567,geocoded
44acb1ff-18e7-40de-822e-c7f32ad504e4-000084eb,A B Khan,Sundry Creditors,,,,0.0,0.0,,,not_found
44acb1ff-18e7-40de-822e-c7f32ad504e4-00003e4b,Absolute Networks Pvt Ltd,Sundry Creditors,"3rd floor, Vasudav Chembers, Old Nagardas Rd, opp. Wilson Pen Company, Mogra Village, Mogra Pada, Natwar Nagar, Andheri East, Mumbai, Maharashtra 400069, India",2228395800,accounts@absolute.co.in,213840.0,258348.38,19.1244055,72.849108,geocoded
44acb1ff-18e7-40de-822e-c7f32ad504e4-0000178a,Acumen Solutions,Sundry Creditors,"981B, Janatha Nagar, TK Layout, Mysuru, Karnataka 570009, India",07760535693,contact@girishraj.com,0.0,0.0,12.298167,76.61675,geocoded
44acb1ff-18e7-40de-822e-c7f32ad504e4-00003a31,Aditech ICT Private Limited,Sundry Creditors,"Kurund, Maharashtra 421101, India",,,0.0,0.0,19.3673751,73.1581939,geocoded
44acb1ff-18e7-40de-822e-c7f32ad504e4-000050c3,ADL INTERNATIONAL,Sundry Creditors,"61b, 61/h, Gulam Jilani Khan Rd, Topsia, Kolkata, West Bengal 700039, India",,,0.0,0.0,22.5363721,88.3900389,geocoded
44acb1ff-18e7-40de-822e-c7f32ad504e4-000037d7,Advik Global Marketing,Sundry Creditors,"floor b4, 37A, Shabad Extension, Sector17, Rohini, New Delhi, Delhi, 110089, India",,,0.0,0.0,28.743585,77.11797,geocoded
44acb1ff-18e7-40de-822e-c7f32ad504e4-00004f54,AGODA,Sundry Creditors,,,,0.0,0.0,,,not_found
44acb1ff-18e7-40de-822e-c7f32ad504e4-00005179,AIR INDIA LIMITED,Sundry Creditors,,,,0.0,0.0,,,not_found
44acb1ff-18e7-40de-822e-c7f32ad504e4-00003bd4,AIRP Solutions LLP,Sundry Creditors,"Sumel Business Park, D-317, Dudheshwar Rd, Shahibag, Ahmedabad, Gujarat 380004, India",,,0.0,0.0,23.0465701,72.5837564,geocoded
44acb1ff-18e7-40de-822e-c7f32ad504e4-0000846f,Aisensy Communicationsprivate Limited,Sundry Creditors,"22, 18, Electronic City, Phase IV, Udyog Vihar, Sector 18, Gurugram, Haryana 122015, India",,,0.0,-6264.62,28.500824,77.070188,geocoded
44acb1ff-18e7-40de-822e-c7f32ad504e4-00005dfe,AIX CONNECT PRIVATE LIMITED,Sundry Creditors,,,,0.0,0.0,,,not_found
44acb1ff-18e7-40de-822e-c7f32ad504e4-00004d83,A.K.BROTHERS,Sundry Creditors,"Lane no.3, 3, Chandmari Rd, Kankarbagh Colony More, Kankarbagh, Mithapur, Patna, Bihar 800020, India",,,0.0,0.0,25.6007574,85.1450033,geocoded
44acb1ff-18e7-40de-822e-c7f32ad504e4-00003e2b,Akhand Enterprise,Sundry Creditors,"6R59+QPF, Bhari Mata Rd, Fatakdawadi, Sabri Nagar, Industrial Area, Singanpor, Surat, Gujarat 395004, India",,,0.0,0.0,21.2094346,72.8192913,geocoded
44acb1ff-18e7-40de-822e-c7f32ad504e4-00008668,AKSHAY SOFTWARE TECHNOLOGIES PRIVATE LIMITED,Sundry Creditors,,,,0.0,-24300.0,,,not_found
44acb1ff-18e7-40de-822e-c7f32ad504e4-00005e19,Akshay Software Technologies Pvt Ltd-Old,Sundry Creditors,"214, building, 2, Sector I, MIDC Industrial Area, Sector 1, Mahape, Navi Mumbai, Maharashtra 400710, India",9594221373,accounts1@akshay.com,308880.0,121500.0,19.110593,73.017341,geocoded
44acb1ff-18e7-40de-822e-c7f32ad504e4-00003a73,Aman Electronics,Sundry Creditors,,,,0.0,0.0,,,not_found
44acb1ff-18e7-40de-822e-c7f32ad504e4-000033a5,Amar Pandey and Company,Sundry Creditors,"PLOT NO.- 88, 40, Liberty Housing Society, Sector 17, Vashi, Navi Mumbai, Maharashtra 400703, India",9685702167,,0.0,0.0,19.0697521,72.99980099999999,geocoded
44acb1ff-18e7-40de-822e-c7f32ad504e4-00003dce,Amazon Internet Services Private Limited,Sundry Creditors,"Nehru Place, New Delhi, Delhi 110019, India",,,0.0,0.0,28.550597,77.2505138,geocoded
44acb1ff-18e7-40de-822e-c7f32ad504e4-0000596d,Amazon Pay India Pvt Ltd,Sundry Creditors,,,,-6156.0,-8393.0,,,not_found
44acb1ff-18e7-40de-822e-c7f32ad504e4-00003ce0,Amazon Retail India Private Limited,Sundry Creditors,"7C3X+MR5, Shamshabad, Mamidpally, Telangana 500005, India",,,0.0,-3206.55,17.2541312,78.4496168,geocoded
44acb1ff-18e7-40de-822e-c7f32ad504e4-00003c82,Amazon Seller Services Private Limited,Sundry Creditors,"BRIGADE GATEWAY, Brigade Gateway Resident Ln, Rajajinagar, Bengaluru, Karnataka 560055, India",,,0.0,0.0,13.0112928,77.5569265,geocoded
44acb1ff-18e7-40de-822e-c7f32ad504e4-0000846c,Ambe Electrical and Hardware Stores,Sundry Creditors,"4, building, S-3, Vedanta Phase III, Vedant Complex, Samata Nagar, Thane West, Mumbai, Thane, Maharashtra 400606, India",,,0.0,78078.78,19.209103,72.961687,geocoded
44acb1ff-18e7-40de-822e-c7f32ad504e4-00005e1b,Amin Hasan Khan,Sundry Creditors,,,,0.0,0.0,,,not_found
44acb1ff-18e7-40de-822e-c7f32ad504e4-000022bc,Amit Jagannath Sonawane,Sundry Creditors,,,,0.0,0.0,,,not_found
44acb1ff-18e7-40de-822e-c7f32ad504e4-0000846e,Amy Group,Sundry Creditors,,,,0.0,-553371.0,,,not_found
44acb1ff-18e7-40de-822e-c7f32ad504e4-00005dff,ANANDA STORES,Sundry Creditors,,,,0.0,0.0,,,not_found
44acb1ff-18e7-40de-822e-c7f32ad504e4-00003e76,Anant Logistics,Sundry Creditors,,,,0.0,0.0,,,not_found
44acb1ff-18e7-40de-822e-c7f32ad504e4-0000354f,Anik,Sundry Creditors,"1, Khetarpar Nagar 1 Rd, Khetarpar Nagar, Vir Bhaghat Singh Nagar, Anjar, Gujarat 370110, India",,,0.0,0.0,23.1008247,70.03967039999999,geocoded
44acb1ff-18e7-40de-822e-c7f32ad504e4-000010ea,Anil S. Shah,Sundry Creditors,,,,0.0,0.0,,,not_found
44acb1ff-18e7-40de-822e-c7f32ad504e4-00003284,Anita Sharma,Sundry Creditors,,,,0.0,0.0,,,not_found
44acb1ff-18e7-40de-822e-c7f32ad504e4-000084bb,Ankiya Corporation(Ankit Bhagwati Prasad Dhandharia),Sundry Creditors,,,,0.0,-469298.0,,,not_found
44acb1ff-18e7-40de-822e-c7f32ad504e4-000040ac,Anoop Consultancy,Sundry Creditors,"Lal Bahadur Shastri Marg, Maharashtra, India",02225901371,anoop@anoopconsultancy.com,0.0,0.0,19.1284994,72.9252816,geocoded
44acb1ff-18e7-40de-822e-c7f32ad504e4-0000844e,ANSH ENTERPRISES(Cr),Sundry Creditors,"809 1653, 16, Wagle Estate Rd, Wagle Estate, Wagle Industrial Estate, Thane West, Thane, Maharashtra 400604, India",9594274068,,0.0,0.0,19.1906396,72.952424,geocoded
44acb1ff-18e7-40de-822e-c7f32ad504e4-000041d1,APEX ACTSOFT TECHNOLOGIES PRIVATE LIMITED,Sundry Creditors,,,,0.0,0.0,,,not_found
44acb1ff-18e7-40de-822e-c7f32ad504e4-00001db5,Apex Enterprises,Sundry Creditors,"Vijay Chambers, 1140, Tribhuvan Rd, Grant Road East, Shapur Baug, Grant Road, Mumbai, Maharashtra 400004, India",91224212884488,rahul@apexenterprises.in,-385385.6,-385385.6,18.9602816,72.8191406,geocoded
44acb1ff-18e7-40de-822e-c7f32ad504e4-00002be6,Apex Infotech India,Sundry Creditors,"Mogra Village, Sahyadri Colony, Jogeshwari East, Mumbai, Maharashtra, India",,accounts@apexinfotech.in,0.0,0.0,19.1250919,72.8489632,geocoded
44acb1ff-18e7-40de-822e-c7f32ad504e4-00005e00,APNATIME TECH PRIVATE LIMITED,Sundry Creditors,,,,3658.0,3658.0,,,not_found
44acb1ff-18e7-40de-822e-c7f32ad504e4-0000354e,Appario Retail Private Ltd,Sundry Creditors,"kh no. 18, 1, Street Number 16, Block D, Swaroop Nagar, Bhalswa, Delhi, 110042, India",,,0.0,0.0,28.759317,77.15565079999999,geocoded
44acb1ff-18e7-40de-822e-c7f32ad504e4-00003b36,Appario Retail Private Ltd (Thane),Sundry Creditors,"Kalyan Padgha State Highway 222, Village Vashere, Post, Amane, Vashere, Maharashtra 421101, India",,,1558.0,1558.0,19.3304823,73.1636067,geocoded
44acb1ff-18e7-40de-822e-c7f32ad504e4-00003b94,A R Creations,Sundry Creditors,"57, Tobacco St, Bartan Bazaar, Moradabad, Uttar Pradesh 244001, India",,,0.0,0.0,28.8371215,78.7803014,geocoded
44acb1ff-18e7-40de-822e-c7f32ad504e4-00008191,ARIKA ENTERPRISES LLP,Sundry Creditors,,,,0.0,0.0,,,not_found
44acb1ff-18e7-40de-822e-c7f32ad504e4-00003062,Arise Technologies,Sundry Creditors,"Colony Number 9, JV7H+V8F, Lane No. 9, Choudhary Park, Colony Number 8, Vijay Nagar, Dighi, Pimpri-Chinchwad, Pune, Maharashtra 411015, India",,arise.tallysales@gmail.com,0.0,0.0,18.6140618,73.8782988,geocoded
44acb1ff-18e7-40de-822e-c7f32ad504e4-00002c32,Arun  Vinayak Joshi,Sundry Creditors,"Near Sai Baba Mandir, Panch Pakdi, 5XX8+CG8, Almeda Rd, Ramabai Ambedkar Nagar, Ganeshwadi, Thane West, Thane, Maharashtra 400601, India",,arun17joshi@gmail.com,0.0,0.0,19.1985254,72.96631909999999,geocoded
44acb1ff-18e7-40de-822e-c7f32ad504e4-00003cb0,Asian Hobby Crafts LLP,Sundry Creditors,"664, Udyog Vihar Phase V Rd, Udyog Vihar 3, Udyog Vihar, Sector 19, Gurugram, Haryana 122016, India",,,0.0,0.0,28.5021825,77.08417260000002,geocoded
44acb1ff-18e7-40de-822e-c7f32ad504e4-00002332,Asia SS Industries.,Sundry Creditors,"Knowledge Park, 27/1, Thite Nagar, Kharadi, Pune, Maharashtra 411014, India",,asiaindustries@yahoo.in,0.0,0.0,18.5472094,73.9403639,geocoded
44acb1ff-18e7-40de-822e-c7f32ad504e4-00001ba1,Association of System Integrators & Retailers In Technology (ASIRT),Sundry Creditors,"380, Sardar Vallabhbhai Patel Rd, Charni Road East, Bhatwadi, Girgaon, Mumbai, Maharashtra 400004, India",66122000,,0.0,0.0,18.958058,72.82168899999999,geocoded
44acb1ff-18e7-40de-822e-c7f32ad504e4-00003539,Atharva Incorporation,Sundry Creditors,"Dr Ernest Borges Rd, Parel, Mumbai, Maharashtra 400012, India",,,0.0,0.0,19.0016287,72.840883,geocoded
44acb1ff-18e7-40de-822e-c7f32ad504e4-00004f63,A  T SOLUTIONS,Sundry Creditors,"Lajpat Nagar, New Delhi, Delhi, India",,,0.0,0.0,28.5649034,77.2403317,geocoded
44acb1ff-18e7-40de-822e-c7f32ad504e4-0000419a,Atul Jajodia,Sundry Creditors,,,,0.0,0.0,,,not_found
44acb1ff-18e7-40de-822e-c7f32ad504e4-00004776,Avivi,Sundry Creditors,"1401 1st St SE #201, Calgary, AB T2G 2J3, Canada",+380977130613,a.gerasymchuk@avivi.com.ua/hello@avivi.pro,0.0,0.0,51.0392314,-114.0614131,geocoded
44acb1ff-18e7-40de-822e-c7f32ad504e4-00003ad6,A V Mementos & Sports,Sundry Creditors,"Abids, Hyderabad, Telangana 500001, India",,,0.0,0.0,17.393,78.473,geocoded
44acb1ff-18e7-40de-822e-c7f32ad504e4-000010bd,Bafana Cards,Sundry Creditors,"XR3C+HG9, Charni Road East, Mangal Wadi, Girgaon, Mumbai, Maharashtra 400004, India",022238505553,info@bafanacards.com,0.0,0.0,18.9539025,72.8213622,geocoded
44acb1ff-18e7-40de-822e-c7f32ad504e4-00003af6,Bafna Cards,Sundry Creditors,"XR3C+HG9, Charni Road East, Mangal Wadi, Girgaon, Mumbai, Maharashtra 400004, India",02223850555333,info@bafnacards.com,0.0,0.0,18.9539025,72.8213622,geocoded
44acb1ff-18e7-40de-822e-c7f32ad504e4-0000196b,Bafna Graphics,Sundry Creditors,"XR3C+HG9, Charni Road East, Mangal Wadi, Girgaon, Mumbai, Maharashtra 400004, India",02223850555,info@bafnacards.com,0.0,0.0,18.9539025,72.8213622,geocoded
44acb1ff-18e7-40de-822e-c7f32ad504e4-000052cf,BAHU SAREES,Sundry Creditors,,,,0.0,0.0,,,not_found
44acb1ff-18e7-40de-822e-c7f32ad504e4-00002295,Bajaj Allianz General Insurance Co.Ltd,Sundry Creditors,"Sun Magnetica, Louis Wadi, Thane West, Thane, Maharashtra 400604, India",022258323404142,,0.0,0.0,19.1948783,72.96183520000001,geocoded
44acb1ff-18e7-40de-822e-c7f32ad504e4-00003901,Bajaj Finance Limited,Sundry Creditors,,,,0.0,0.0,,,not_found
44acb1ff-18e7-40de-822e-c7f32ad504e4-00008077,Balaji Enterprises(Thane),Sundry Creditors,"Varun Mahal, 49-4, Bhatwadi, Kisan Nagar, Thane West, Thane, Mumbai, Maharashtra 400604, India",,,248.0,248.0,19.1875703,72.94642569999999,geocoded
44acb1ff-18e7-40de-822e-c7f32ad504e4-0000840f,Bapurao Shirkule,Sundry Creditors,,,,0.0,-60.0,,,not_found
44acb1ff-18e7-40de-822e-c7f32ad504e4-00003ad7,Batra Printers,Sundry Creditors,"Pucca Tank, Sundar Bagh Colony, Nahan, Himachal Pradesh 173001",,,0.0,0.0,30.5620128,77.293849,geocoded
44acb1ff-18e7-40de-822e-c7f32ad504e4-000007a5,B.D. Travels,Sundry Creditors,"49/1, 5th Floor, Utkalmoni Gopabandhu Sarani, Raja Katra, Bara Bazar, Jorasanko, Kolkata, West Bengal 700007, India",03322689282,bdtravels@vsnl.net,0.0,0.0,22.5816791,88.3536038,geocoded
44acb1ff-18e7-40de-822e-c7f32ad504e4-00002742,Benchmark Internet Group (I) Pvt. Ltd.,Sundry Creditors,"Spaze iTechPark, 622, Badshahpur Sohna Rd, Bhondsi, Sector 49, Gurugram, Haryana 122102, India",8882416722,richa@benchmarkemail.com,0.0,0.0,28.350357,77.0653901,geocoded
44acb1ff-18e7-40de-822e-c7f32ad504e4-00001234,Beta Intercom Network,Sundry Creditors,"349, Lamington Rd, Krishna Kunj, Grant Road East, Grant Road (W), Grant Road, Mumbai, Maharashtra 400007, India",23810535,,0.0,0.0,18.9603509,72.81741559999999,geocoded
44acb1ff-18e7-40de-822e-c7f32ad504e4-0000248a,Bhagwati Dhandharia Car Hiring Charges,Sundry Creditors,,,,0.0,0.0,,,not_found
44acb1ff-18e7-40de-822e-c7f32ad504e4-000017a8,Bhagwati Offset Printers,Sundry Creditors,"Sonarpatti Rd, Purani Bazar, Musahri, Muzaffarpur, Bihar 842001, India",,,0.0,0.0,26.1237227,85.3937542,geocoded
44acb1ff-18e7-40de-822e-c7f32ad504e4-0000203d,Bharti Airtel Limited (Mumbai),Sundry Creditors,"7, Ganga Niwas, W, New Link Rd, opp. Lakozy Toyota Showroom, Malad, Chincholi Bunder, Malad West, Mumbai, Maharashtra 400064, India",,,15767.3,7198.26,19.1809033,72.8364314,geocoded
44acb1ff-18e7-40de-822e-c7f32ad504e4-00003421,Bharti Axa General Insurance Co.Ltd,Sundry Creditors,,,,0.0,0.0,,,not_found
44acb1ff-18e7-40de-822e-c7f32ad504e4-00008125,Bhashkar Bhatt,Sundry Creditors,"JVM7+83J, Jageshwar Dham, Naikana, Uttarakhand 263623, India",,,0.0,-43000.0,29.6333436,79.86263629999999,geocoded
44acb1ff-18e7-40de-822e-c7f32ad504e4-00003b95,Bhim Sen Enterprises,Sundry Creditors,"Saraswati Vihar, Pitampura, Delhi, 110034, India",,,0.0,0.0,28.6964967,77.1250482,geocoded
44acb1ff-18e7-40de-822e-c7f32ad504e4-00004f56,BHUMIKA HIGHSTREET INDIA PRIVATE LIMITED,Sundry Creditors,,,,0.0,0.0,,,not_found
44acb1ff-18e7-40de-822e-c7f32ad504e4-000035bf,Bijason Infotech,Sundry Creditors,"128, Friends Colony, Harnathapura, Jhotwara, Jaipur, Rajasthan 302012, India",,,0.0,0.0,26.9611721,75.7100621,geocoded
44acb1ff-18e7-40de-822e-c7f32ad504e4-000084ab,Bimal Kumar Prajapati,Sundry Creditors,,,,0.0,-3340.0,,,not_found
44acb1ff-18e7-40de-822e-c7f32ad504e4-000080b3,BITRIX24 INDIA PRIVATE LIMITED (Cr),Sundry Creditors,,,,-239072.53,3863432.23,,,not_found
44acb1ff-18e7-40de-822e-c7f32ad504e4-00002119,Bitrix Inc,Sundry Creditors,"901 N Pitt St UNIT 325, Alexandria, VA 22314, USA",,,0.0,0.0,38.8141466,-77.04230489999999,geocoded
44acb1ff-18e7-40de-822e-c7f32ad504e4-000007c0,Biz Secure Lab's Pvt. Ltd.,Sundry Creditors,"SIR PARASHURAMBHAU COLLEGE, 30, टिळक रस्ता, opp. to naralkar institute, पेरुगेट, सदाशिव पेठ, पुणे, महाराष्ट्र 411030, India",020244662229823977208,sales@indiaantivirus.com,0.0,0.0,18.5082846,73.84996459999999,geocoded
44acb1ff-18e7-40de-822e-c7f32ad504e4-00005c4f,Blue Roof Infotainment Pvt Ltd,Sundry Creditors,,,,0.0,0.0,,,not_found
44acb1ff-18e7-40de-822e-c7f32ad504e4-00003bbc,BMD Healthcare,Sundry Creditors,,,,0.0,0.0,,,not_found
44acb1ff-18e7-40de-822e-c7f32ad504e4-00003cbd,Bollywood Designer,Sundry Creditors,"Paramhans Society, Katargam, Surat, Gujarat 395004, India",,,0.0,0.0,21.2347195,72.8244067,geocoded
44acb1ff-18e7-40de-822e-c7f32ad504e4-000016a7,Bombay Copy Center,Sundry Creditors,"1, Raughunath Dadaji St, Borabazar Precinct, Ballard Estate, Fort, Mumbai, Maharashtra 400001, India",02261607566366754,bombaycopy33@gmail.com,0.0,0.0,18.9357506,72.83389740000001,geocoded
44acb1ff-18e7-40de-822e-c7f32ad504e4-0000345c,Brand Factory,Sundry Creditors,"Ghodbunder Rd, opp. Lokim Company, Dokali Pada, Dhokali, Thane West, Thane, Maharashtra 400607, India",,,0.0,0.0,19.2305798,72.9773622,geocoded
44acb1ff-18e7-40de-822e-c7f32ad504e4-0000840c,Breach Candy Hospital,Sundry Creditors,,,,0.0,0.0,,,not_found
44acb1ff-18e7-40de-822e-c7f32ad504e4-00003548,Brezzycloud,Sundry Creditors,"Crystal Industrial & Logistics Park, National Highway 8A, Ahmedabad, Gujarat 382220, India",,,0.0,0.0,22.7706899,72.3209218,geocoded
44acb1ff-18e7-40de-822e-c7f32ad504e4-00003697,Burhani Tin Works,Sundry Creditors,"8, Dr Mascarenhas Rd, Anjeer Wadi, Thakkar Estate, Byculla, Mumbai, Maharashtra 400010, India",,,0.0,0.0,18.9730018,72.8399992,geocoded
44acb1ff-18e7-40de-822e-c7f32ad504e4-000033a2,Business software & solutions,Sundry Creditors,"64, Santoshpur Ave, Aurobindo Block, Santoshpur, Kolkata, West Bengal 700075, India",913324724013,jayanta@bssit.net,0.0,0.0,22.4928937,88.38019589999999,geocoded
44acb1ff-18e7-40de-822e-c7f32ad504e4-00004f58,CARATLANE,Sundry Creditors,,,,0.0,0.0,,,not_found
44acb1ff-18e7-40de-822e-c7f32ad504e4-000081cb,CASA DECOR HOME SOLUTIONS LLP,Sundry Creditors,,,,2699.0,2699.0,,,not_found
44acb1ff-18e7-40de-822e-c7f32ad504e4-00008046,Case Creation,Sundry Creditors,,,,0.0,0.0,,,not_found
44acb1ff-18e7-40de-822e-c7f32ad504e4-00008048,CASHFREE PAYMENTS INDIA PRIVATE LIMITED,Sundry Creditors,,,,-0.62,0.0,,,not_found
44acb1ff-18e7-40de-822e-c7f32ad504e4-000081f3,CELEBRATION GIFT LLP,Sundry Creditors,,,,0.0,0.0,,,not_found
44acb1ff-18e7-40de-822e-c7f32ad504e4-0000844f,Chahya shirkule,Sundry Creditors,,,,0.0,40.0,,,not_found
44acb1ff-18e7-40de-822e-c7f32ad504e4-00003a37,Chhatishgarh Ajeevika Samvardhan Samiti DDU-GKY,Sundry Creditors,,,,0.0,0.0,,,not_found
44acb1ff-18e7-40de-822e-c7f32ad504e4-000039e4,Chhattisgarh State Rural Livehood Mission,Sundry Creditors,"Atal Nagar-Nava Raipur, Chhattisgarh, India",25117362510545,,0.0,0.0,21.1610957,81.78640879999999,geocoded
44acb1ff-18e7-40de-822e-c7f32ad504e4-00005e22,Chirag Jaiswal,Sundry Creditors,,,,0.0,0.0,,,not_found
44acb1ff-18e7-40de-822e-c7f32ad504e4-00004b6e,CIGFIL Retail Private Limited,Sundry Creditors,"Vashere, Maharashtra, India",,,-1131.0,-1131.0,19.3334998,73.1615127,geocoded
44acb1ff-18e7-40de-822e-c7f32ad504e4-00005129,Clicktech Retail Private Limited,Sundry Creditors,"Balewadi, Pune, Maharashtra, India",,,2126.0,8094.06,18.5788913,73.7706807,geocoded
44acb1ff-18e7-40de-822e-c7f32ad504e4-00008363,Clicktech Retail Private Limited-Bihar,Sundry Creditors,"Bhagalpur, Bihar, India",,,528.0,528.0,25.242453,86.9842256,geocoded
44acb1ff-18e7-40de-822e-c7f32ad504e4-00008529,Cloudconnect Communications Private Limited,Sundry Creditors,"South Delhi, New Delhi, Delhi, India",,,0.0,-13274.0,28.4929198,77.1847921,geocoded
44acb1ff-18e7-40de-822e-c7f32ad504e4-00003a46,Cloudtail India Private Limited,Sundry Creditors,"IndoSpace Logistics Park, Siruvapuri Rd from National Hwy 5, Puduvoyal, Tamil Nadu 601206, India",,,0.0,0.0,13.3268604,80.1376246,geocoded
44acb1ff-18e7-40de-822e-c7f32ad504e4-000042de,Cloudtail India Private Limited (HR),Sundry Creditors,,,,0.0,0.0,,,not_found
44acb1ff-18e7-40de-822e-c7f32ad504e4-00002133,Cloudtail India Pvt Ltd,Sundry Creditors,"Kurund, Maharashtra 421101, India",,,0.0,0.0,19.3673751,73.1581939,geocoded
44acb1ff-18e7-40de-822e-c7f32ad504e4-0000512a,COCOBLU RETAIL LIMITED,Sundry Creditors,,,,1308.01,2947.01,,,not_found
44acb1ff-18e7-40de-822e-c7f32ad504e4-00003e61,Codebucket Solutions Private Limited,Sundry Creditors,"N Mattakadu Rd, HMT Colony, North Kalamassery, Kalamassery, Kochi, Kerala 683503, India",,,0.0,0.0,10.0645764,76.347833,geocoded
44acb1ff-18e7-40de-822e-c7f32ad504e4-00005ccc,Cogniscient Business Solutions Pvt Ltd,Sundry Creditors,"ground floor, D-213, D Block, Sector 63, Noida, Uttar Pradesh 201309, India",,,0.0,0.0,28.6278041,77.3821729,geocoded
44acb1ff-18e7-40de-822e-c7f32ad504e4-00005ffb,Comhard Technologies Pvt Ltd,Sundry Creditors,"A-44 & 45, Sushil Marg, Block A, Industrial Area, Sector 62, Noida, Uttar Pradesh 201309, India",,,0.0,0.0,28.6244435,77.37024720000001,geocoded
44acb1ff-18e7-40de-822e-c7f32ad504e4-0000374b,Cona Industries,Sundry Creditors,"Brahans Business Park, 101, Off Mahakali Caves Rd, Gokul Nandanvan Co-operative Society, Radha Krishna Nagar, Aghadi Nagar, Andheri East, Mumbai, Maharashtra 400093, India",,,0.0,0.0,19.1227753,72.8628694,geocoded
44acb1ff-18e7-40de-822e-c7f32ad504e4-00002a1a,Confederation of India Industry,Sundry Creditors,"Lodhi Rd, Institutional Area, Lodi Colony, New Delhi, Delhi, India",9111246299947,manisha.chawla@cii.in,0.0,0.0,28.5907866,77.2263917,geocoded
44acb1ff-18e7-40de-822e-c7f32ad504e4-00003749,Consulting Rooms Private Limited,Sundry Creditors,"Vashere, Maharashtra, India",,,0.0,0.0,19.3334998,73.1615127,geocoded
44acb1ff-18e7-40de-822e-c7f32ad504e4-00003a08,Cool Air Services,Sundry Creditors,"phase i, 1, near post office, behind k.v.pendharkar college, MIDC, Dombivli East, Dombivli, Maharashtra 421203, India",,info@coolaircervices.in,0.0,0.0,19.2147031,73.1066417,geocoded
44acb1ff-18e7-40de-822e-c7f32ad504e4-00003229,Counfreedise,Sundry Creditors,"Mysore Rd, Karnataka, India",,,0.0,0.0,12.6368067,77.1281551,geocoded
44acb1ff-18e7-40de-822e-c7f32ad504e4-000034c8,Cox & Kings Limited,Sundry Creditors,"4th floor, 16, G Vaidya Rd, Kala Ghoda, Fort, Mumbai, Maharashtra 400001, India",02261968888,mahesh.patil@coxandkings.com,0.0,0.0,18.930567,72.8346048,geocoded
44acb1ff-18e7-40de-822e-c7f32ad504e4-000039a0,Cozy vision Technologies Pvt Ltd,Sundry Creditors,"Tower B, ITHUM TOWER, A 40, Block A, Industrial Area, Sector 62, Noida, Uttar Pradesh 201309, India",01204851555,accounts@cozyvision.com,0.0,0.0,28.6272735,77.37250329999999,geocoded
44acb1ff-18e7-40de-822e-c7f32ad504e4-000034ef,Cpc Services Pvt Ltd,Sundry Creditors,"Unique Packaging Systems, 24B/9, Rajiv Gandhi Colony, New Industrial Township, Faridabad, Haryana 121005, India",9990073766,soniaspecialist.dme@gmail.com,0.0,0.0,28.3730028,77.3057336,geocoded
44acb1ff-18e7-40de-822e-c7f32ad504e4-00008633,Creative IT Solutions,Sundry Creditors,"604, Rustomjee Ave, Evershine Globle City, Rustomjee Global City, Virar West, Virar, Maharashtra 401303, India",,,0.0,0.0,19.4711016,72.8025818,geocoded
44acb1ff-18e7-40de-822e-c7f32ad504e4-00008433,Creative Konnector's,Sundry Creditors,"B44, B44 A, Road No 27, SG Barve Rd, opposite Lanxess House, Neheru Nagar, Wagle Industrial Estate, Thane West, Thane, Maharashtra 400604, India",,,0.0,0.0,19.193988,72.951199,geocoded
44acb1ff-18e7-40de-822e-c7f32ad504e4-00008204,Creditors,Sundry Creditors,,,,0.0,0.0,,,not_found
44acb1ff-18e7-40de-822e-c7f32ad504e4-00005e29,Creshirts,Sundry Creditors,,,,0.0,0.0,,,not_found
44acb1ff-18e7-40de-822e-c7f32ad504e4-00004188,CROSSSALES.IN,Sundry Creditors,"Delhi State Industrial and Infrastructure Development Corporation, Jhilmil Industrial Area, Jhilmil Colony, Delhi, 110095, India",,,0.0,0.0,28.6751933,77.3088279,geocoded
44acb1ff-18e7-40de-822e-c7f32ad504e4-00003f50,CRYSTALARC LIFE STYLE,Sundry Creditors,,,,0.0,0.0,,,not_found
44acb1ff-18e7-40de-822e-c7f32ad504e4-000081a5,CRYSTA WORLD,Sundry Creditors,,,,0.0,0.0,,,not_found
44acb1ff-18e7-40de-822e-c7f32ad504e4-0000418d,CS Parbat Chaudhari,Sundry Creditors,,+919887091135,parbatpatel97@gmail.com,-7500.0,-7500.0,,,not_found
44acb1ff-18e7-40de-822e-c7f32ad504e4-0000309d,Dalvi Auto Certre,Sundry Creditors,"Naupada, Thane West, Thane, Maharashtra, India",,,-708.0,-860.74,19.1902827,72.9711542,geocoded
44acb1ff-18e7-40de-822e-c7f32ad504e4-0000512b,DAMSON TECHNOLOGIES PRIVATE LIMITED,Sundry Creditors,,,,0.0,0.0,,,not_found
44acb1ff-18e7-40de-822e-c7f32ad504e4-00002ee5,Darshana Bhagat,Sundry Creditors,"4R8Q+53P, Juhu Ln, Yadav Nagar, Andheri West, Mumbai, Maharashtra 400058, India",,,0.0,0.0,19.115456,72.83769219999999,geocoded
44acb1ff-18e7-40de-822e-c7f32ad504e4-00003bad,Darshan Ramlal Chaturvedi,Sundry Creditors,,,,0.0,0.0,,,not_found
44acb1ff-18e7-40de-822e-c7f32ad504e4-00004db0,DARSHITA AASHIYANA PRIVATE LIMITED,Sundry Creditors,,,,0.0,0.0,,,not_found
44acb1ff-18e7-40de-822e-c7f32ad504e4-00001276,Delta Engineering Services,Sundry Creditors,"Thane, Maharashtra 400601, India",,,0.0,0.0,19.2010502,72.97853529999999,geocoded
44acb1ff-18e7-40de-822e-c7f32ad504e4-000052ad,Demo,Sundry Creditors,,,payal.m@rajlaxmiworld.com,0.0,0.0,,,not_found
44acb1ff-18e7-40de-822e-c7f32ad504e4-0000512c,DHANANJAY INDUSTRIAL ENGINEER PVT. LTD.,Sundry Creditors,,,,0.0,0.0,,,not_found
44acb1ff-18e7-40de-822e-c7f32ad504e4-00001693,Dharni International,Sundry Creditors,"Vijay Chambers, 1140, Tribhuvan Rd, Grant Road East, Shapur Baug, Grant Road, Mumbai, Maharashtra 400004, India",02242128888,dharnimumbai@gmail.com,0.0,0.0,18.9602816,72.8191406,geocoded
44acb1ff-18e7-40de-822e-c7f32ad504e4-0000850d,Dhiraj Pandurang Mhatre,Sundry Creditors,,,,0.0,0.0,,,not_found
44acb1ff-18e7-40de-822e-c7f32ad504e4-000021af,D Horizon Digital Solutions,Sundry Creditors,"Lok Upvan, Phase II, Gladys Alvares Road, 6XCC+G52, Lok Upvan, Phase 2, Thane West, Thane, Maharashtra 400610, India",02225479883,info@dhorizon.net,0.0,0.0,19.2212654,72.9703755,geocoded
44acb1ff-18e7-40de-822e-c7f32ad504e4-0000818f,DIVINE ENTERPRISE,Sundry Creditors,,,,0.0,0.0,,,not_found
44acb1ff-18e7-40de-822e-c7f32ad504e4-0000354a,Divine Infotechs,Sundry Creditors,"Aditya Arcade, Topiwala Ln, Grant Road East, Shapur Baug, Grant Road, Mumbai, Maharashtra 400007, India",,,0.0,0.0,18.9603563,72.8183365,geocoded
44acb1ff-18e7-40de-822e-c7f32ad504e4-000042d2,DIWAN AUTO CARE LLP,Sundry Creditors,,,,5200.0,5200.0,,,not_found
44acb1ff-18e7-40de-822e-c7f32ad504e4-00003d8b,Dolphin Systems,Sundry Creditors,"Satya Pushpa Society, 5XV8+XXH, Panch Pakhdi, Thane West, Thane, Maharashtra 400602, India",0222543488825390053,,0.0,0.0,19.1949447,72.9674732,geocoded
44acb1ff-18e7-40de-822e-c7f32ad504e4-000021b2,Drive 2 Destine Solutions Pvt Ltd,Sundry Creditors,"Shree Om CHS, 95, Sangam Society, Samabhav Society, Gorai 2, Borivali West, Mumbai, Maharashtra 400091, India",,,0.0,0.0,19.2298547,72.8252363,geocoded
44acb1ff-18e7-40de-822e-c7f32ad504e4-00001226,Drive India Enterprises Solutions Limited,Sundry Creditors,"5XQC+3GH, Gopal Krishna Gokhale Marg, Naupada, Thane West, Thane, Maharashtra 400602, India",,,0.0,0.0,19.1876757,72.9713735,geocoded
44acb1ff-18e7-40de-822e-c7f32ad504e4-00005063,DUNES FACTORY PRIVATE LIMITED,Sundry Creditors,"Bikaner, Rajasthan, India",,,0.0,0.0,28.0229348,73.3119159,geocoded
44acb1ff-18e7-40de-822e-c7f32ad504e4-00003fdf,DURASAFE TECHNOLOGIES LLP,Sundry Creditors,,,,0.0,0.0,,,not_found
44acb1ff-18e7-40de-822e-c7f32ad504e4-00004183,Earth Bukket,Sundry Creditors,"H375+CP6 JANAKI APARTMENT, Sector 22 Dwarka, Dwarka, Delhi, 110077, India",,,0.0,0.0,28.5635315,77.0592796,geocoded
44acb1ff-18e7-40de-822e-c7f32ad504e4-00004530,EASTERN LOGICA INFOWAY LTD,Sundry Creditors,,,,0.0,0.0,,,not_found
44acb1ff-18e7-40de-822e-c7f32ad504e4-00000856,Easy Accounting Solutions,Sundry Creditors,"+91-9589128249, +91-9926299029, +91-9039291946",,,0.0,0.0,,,not_found
44acb1ff-18e7-40de-822e-c7f32ad504e4-000085c8,Ekal Enterprises,Sundry Creditors,"22, Reena Complex, Nathani Rd, Khalai Village, Vidyavihar West, Vidyavihar, Mumbai, Maharashtra 400086, India",,ekalenterprise@gmail.com,0.0,634.0,19.0803875,72.8952104,geocoded
44acb1ff-18e7-40de-822e-c7f32ad504e4-00008146,Elcom Digital Solutions Pvt. Ltd.,Sundry Creditors,"B, 12, Udhyog Marg, Block B, Sector 1, Noida, Uttar Pradesh 201301, India",,billing@elcom.digital,0.0,0.0,28.5881294,77.3141193,geocoded
44acb1ff-18e7-40de-822e-c7f32ad504e4-000085d7,Emart Exim Private Limited,Sundry Creditors,"Wagholi,Anusaya Park New Bhadale Wasti, HXGG+P3V, Wagholi, Pune, Maharashtra 412207, India",,,0.0,999.0,18.5768645,73.9751718,geocoded
44acb1ff-18e7-40de-822e-c7f32ad504e4-00008184,EMPIRE GIFT COLLECTION,Sundry Creditors,,,,0.0,0.0,,,not_found
44acb1ff-18e7-40de-822e-c7f32ad504e4-00003d4b,Enjay I T Solutions Limited,Sundry Creditors,"Bhilad, Gujarat 396105, India",,accounts@enjayworld.com,0.0,0.0,20.2767183,72.885432,geocoded
44acb1ff-18e7-40de-822e-c7f32ad504e4-00001763,E-Procurement Technologies Ltd,Sundry Creditors,"b 704, 5, Wall Street 2, Ellisbridge, Ahmedabad, Gujarat 380006, India",07940270506,sales@tedertinger.com,0.0,0.0,23.0261186,72.5678853,geocoded
44acb1ff-18e7-40de-822e-c7f32ad504e4-000027dc,ESSEFF Solutions,Sundry Creditors,"Wagle Estate, Shivaji Nagar, Kisan Nagar 1, Thane West, Thane, Maharashtra 400604, India",02264466268,office@airconditionersolutions.in,0.0,0.0,19.1867519,72.95454939999999,geocoded
44acb1ff-18e7-40de-822e-c7f32ad504e4-0000418a,ESTOKE PRIVATE LIMITED,Sundry Creditors,"Kalasagar Shopping Hub, 201, Sattadhar Cross Rd, Shenbhai Nagar, Ahmedabad, Gujarat 380061, India",,,0.0,0.0,23.0666428,72.5313434,geocoded
44acb1ff-18e7-40de-822e-c7f32ad504e4-00003a5b,ETERNITY INFOSYSTEM PRIVATE LIMITED,Sundry Creditors,,,,0.0,0.0,,,not_found
44acb1ff-18e7-40de-822e-c7f32ad504e4-00005137,ETRADE MARKETING PRIVATE LIMITED,Sundry Creditors,,,,3048.98,3048.98,,,not_found
44acb1ff-18e7-40de-822e-c7f32ad504e4-00008264,ETRADE MARKETING PRIVATE LIMITED-UP,Sundry Creditors,"V.V. Inter College Rd, Shamli, Uttar Pradesh 247776, India",,,1120.0,1120.0,29.4455004,77.3075525,geocoded
44acb1ff-18e7-40de-822e-c7f32ad504e4-00003a5c,Excelsior India,Sundry Creditors,,,,0.0,0.0,,,not_found
44acb1ff-18e7-40de-822e-c7f32ad504e4-00003fd9,FACEBOOK INDIA ONLINE SERVICES PRIVATE LIMITED,Sundry Creditors,,,,0.0,-640.49,,,not_found
44acb1ff-18e7-40de-822e-c7f32ad504e4-00008169,Fastmart,Sundry Creditors,,,,0.0,0.0,,,not_found
44acb1ff-18e7-40de-822e-c7f32ad504e4-00003f16,Federation Of Industries OF India,Sundry Creditors,,,,0.0,0.0,,,not_found
44acb1ff-18e7-40de-822e-c7f32ad504e4-000081ef,FLIPKART INTERNET PRIVATE LIMITED,Sundry Creditors,,,,0.0,0.0,,,not_found
44acb1ff-18e7-40de-822e-c7f32ad504e4-00005dd3,Food Excel Hospitality LLP,Sundry Creditors,"Grand Square, Ghodbunder Rd, Near Bhakti park, Sai Nagar, Anand Nagar, Thane West, Thane, Maharashtra 400615, India",,,0.0,0.0,19.264071,72.96726439999999,geocoded
44acb1ff-18e7-40de-822e-c7f32ad504e4-00003e52,Frantic Trading Pvt Ltd,Sundry Creditors,"Sector 9, Noida, Uttar Pradesh 201301, India",,,0.0,0.0,28.5869496,77.3269988,geocoded
44acb1ff-18e7-40de-822e-c7f32ad504e4-000081b9,Frappe Technologies Pvt Ltd,Sundry Creditors,"Neelkanth Corporate Park, Nathani Rd, near Sahney Indian Private Limited, Kirol Village, Vidyavihar West, Vidyavihar, Mumbai, Maharashtra 400086, India",,,0.0,0.0,19.0820398,72.8957612,geocoded
44acb1ff-18e7-40de-822e-c7f32ad504e4-000041b0,Fusion Orthopedic,Sundry Creditors,"Library Rd, Azad Market, Nawabganj, Tis Hazari, Delhi, 110006, India",,,0.0,0.0,28.6631615,77.2122111,geocoded
44acb1ff-18e7-40de-822e-c7f32ad504e4-000052bd,G1 IT Services,Sundry Creditors,"39, 9th Main Rd, Railway Men's Colony, Kanteerava Nagar, Nandini Layout, Bengaluru, Karnataka 560096, India",,,0.0,-35400.0,13.0166409,77.5332772,geocoded
44acb1ff-18e7-40de-822e-c7f32ad504e4-00004f67,GADGET WORLD,Sundry Creditors,"Dr. Bhadkamkar Marg Junction, Krishna Kunj, Grant Road East, Shapur Baug, Girgaon, Mumbai, Maharashtra 400007, India",,,0.0,0.0,18.960318,72.81716899999999,geocoded
44acb1ff-18e7-40de-822e-c7f32ad504e4-000042f7,Games & Sport,Sundry Creditors,"Gelia, West Bengal 722154, India",,,0.0,0.0,23.0502339,87.51237970000001,geocoded
44acb1ff-18e7-40de-822e-c7f32ad504e4-00008195,GAURI SHANKAR TRADING,Sundry Creditors,,,,558.0,558.0,,,not_found
44acb1ff-18e7-40de-822e-c7f32ad504e4-00003e5b,Geeta Devi Todi,Sundry Creditors,,,,0.0,0.0,,,not_found
44acb1ff-18e7-40de-822e-c7f32ad504e4-0000171c,Getmytdl,Sundry Creditors,"North Paravur, Kerala, India",9037050040,ceo@getmytdl.in,0.0,0.0,10.1446281,76.22727139999999,geocoded
44acb1ff-18e7-40de-822e-c7f32ad504e4-00003f4e,Getsable,Sundry Creditors,,,,0.0,0.0,,,not_found
44acb1ff-18e7-40de-822e-c7f32ad504e4-0000354b,Ghanshyam Soni,Sundry Creditors,"66, Kalyanpuri Rd, Kalyanpuri Colony, Ramnagar, Jaipur, Rajasthan 302019, India",,,0.0,0.0,26.8953694,75.77228579999999,geocoded
44acb1ff-18e7-40de-822e-c7f32ad504e4-00005aa7,Girish Sharma,Sundry Creditors,,,,0.0,0.0,,,not_found
44acb1ff-18e7-40de-822e-c7f32ad504e4-00005138,GITS FOOD PRODUCTS PRIVATE LIMITED,Sundry Creditors,,,,0.0,0.0,,,not_found
44acb1ff-18e7-40de-822e-c7f32ad504e4-00003978,G.K Web (Cr),Sundry Creditors,"Supreme Industrial Estate, Old Nagardas Rd, Mogra Village, Mogra Pada, Natwar Nagar, Andheri East, Mumbai, Maharashtra 400069, India",0226128390405,vicky@aarveecomputers.in,0.0,0.0,19.1270381,72.850118,geocoded
44acb1ff-18e7-40de-822e-c7f32ad504e4-000085c6,Global  Software,Sundry Creditors,,,,0.0,-1500000.0,,,not_found
44acb1ff-18e7-40de-822e-c7f32ad504e4-00003415,Global Software Trading L.L.C,Sundry Creditors,Al Musalla Tower - Office 602 Al Fahidi St - Bur Dubai - Al Hamriya - Dubai - United Arab Emirates,9825293488,info@globalsoftwares.ne,0.0,0.0,25.2584563,55.2982303,geocoded
44acb1ff-18e7-40de-822e-c7f32ad504e4-0000396b,GLPC Ddu Gky New Pia Appraisal,Sundry Creditors,,,,0.0,0.0,,,not_found
44acb1ff-18e7-40de-822e-c7f32ad504e4-000042e2,GO AIRLINES (INDIA) LIMITED,Sundry Creditors,,,,0.0,0.0,,,not_found
44acb1ff-18e7-40de-822e-c7f32ad504e4-00001d12,Go Daddy,Sundry Creditors,"14455 Hayden Rd Suite 219, Scottsdale, AZ 85260, USA",,,0.0,0.0,33.6172719,-111.9051268,geocoded
44acb1ff-18e7-40de-822e-c7f32ad504e4-00003e2d,Godka,Sundry Creditors,"Parwati Society, 39, 1st St, Magan Nagar, Panchvati Society, Subhash Nagar Society, Katargam, Surat, Gujarat 395004, India",,,0.0,0.0,21.228875,72.82775099999999,geocoded
44acb1ff-18e7-40de-822e-c7f32ad504e4-00003ccc,Gokula Kannan Selvaraj,Sundry Creditors,"5, E Depot St, Sudandira Nagar, Triplicane, Chennai, Tamil Nadu 600005, India",,,0.0,0.0,13.0489531,80.27439129999999,geocoded
44acb1ff-18e7-40de-822e-c7f32ad504e4-00003cb5,Gold Touch,Sundry Creditors,"BMC Garden, Sector 2, Village Rd, Kandivali, Charkop, Sector 2 Charkop, Kandivali West, Mumbai, Maharashtra 400067, India",,,0.0,0.0,19.2125706,72.8186272,geocoded
44acb1ff-18e7-40de-822e-c7f32ad504e4-00002862,Google India Pvt Ltd,Sundry Creditors,"Silokhera, South City I, Sector 41, Gurugram, Haryana, India",,,1994.9,1994.9,28.4566048,77.0596844,geocoded
44acb1ff-18e7-40de-822e-c7f32ad504e4-00008219,GO PAWNA CAMP,Sundry Creditors,,,,-1100.0,-1100.0,,,not_found
44acb1ff-18e7-40de-822e-c7f32ad504e4-0000513a,GORGEOUS BEAUTY PARLOUR,Sundry Creditors,,,,0.0,0.0,,,not_found
44acb1ff-18e7-40de-822e-c7f32ad504e4-0000345d,G P PATHAK,Sundry Creditors,,,,0.0,0.0,,,not_found
44acb1ff-18e7-40de-822e-c7f32ad504e4-0000513b,GRAB MORE ENTERPRISES,Sundry Creditors,,,,0.0,0.0,,,not_found
44acb1ff-18e7-40de-822e-c7f32ad504e4-000084c8,Green Apple Compunet (Dombivali),Sundry Creditors,"Mahavir Jyot CHS, Chiplunkar Path, behind Chaitanya Hospital, Ramnagar, Dombivli East, Dombivli, Maharashtra 421201, India",8108105108,compunetgreendombivalil@gmail.com,0.0,-14900.0,19.2162442,73.0894272,geocoded
44acb1ff-18e7-40de-822e-c7f32ad504e4-00003ba4,Gupshup Technology (I) Pvt Ltd(Cr),Sundry Creditors,,,,0.0,0.0,,,not_found
44acb1ff-18e7-40de-822e-c7f32ad504e4-00003fda,Handicraft Decor India,Sundry Creditors,,,,0.0,0.0,,,not_found
44acb1ff-18e7-40de-822e-c7f32ad504e4-000031fe,Happy Valley Chs Federatioon Ltd,Sundry Creditors,,,,0.0,0.0,,,not_found
44acb1ff-18e7-40de-822e-c7f32ad504e4-00005092,Hari Krishna Digital Print,Sundry Creditors,"Ganesh Tower, platform no 1, Ganesh Tower, beside Thane Railway station, Dada Patil Wadi, Shivaji Nagar, Thane West, Thane, Maharashtra 400602, India",81082007790,hkprint2012@gmail.com,0.0,0.0,19.1869728,72.97484930000002,geocoded
44acb1ff-18e7-40de-822e-c7f32ad504e4-00003bca,Harishchandra Kor,Sundry Creditors,,,,0.0,0.0,,,not_found
44acb1ff-18e7-40de-822e-c7f32ad504e4-00003fb2,Hasmukh Agency(  interstate),Sundry Creditors,,,,0.0,0.0,,,not_found
44acb1ff-18e7-40de-822e-c7f32ad504e4-00002859,Health & Happiness Pvt Ltd.,Sundry Creditors,"New Delhi, Delhi, India",,,0.0,0.0,28.6139298,77.2088282,geocoded
44acb1ff-18e7-40de-822e-c7f32ad504e4-000084f5,Hemant Sharma and Associates,Sundry Creditors,,,,0.0,-20000.0,,,not_found
44acb1ff-18e7-40de-822e-c7f32ad504e4-000017dc,Hetal Stationery & General Stores,Sundry Creditors,"101-38, Pestom Sagar Rd Number 2, Chembur West, Pestom Sagar Colony, Chembur, Mumbai, Maharashtra 400089, India",,,0.0,0.0,19.069386,72.9038106,geocoded
44acb1ff-18e7-40de-822e-c7f32ad504e4-000081e2,Heybey Traders,Sundry Creditors,,,,1240.0,1240.0,,,not_found
44acb1ff-18e7-40de-822e-c7f32ad504e4-0000844d,Hiten Barad,Sundry Creditors,,,,0.0,0.0,,,not_found
44acb1ff-18e7-40de-822e-c7f32ad504e4-00008658,Hitesh Raval,Sundry Creditors,,,,0.0,0.0,,,not_found
44acb1ff-18e7-40de-822e-c7f32ad504e4-00002825,H.K. Computer,Sundry Creditors,"9, opp. D.K.Patel Hall, Laxmi Nagar Society, Naranpura, Ahmedabad, Gujarat 380013, India",,hkragesh@gmail.com,0.0,0.0,23.0652459,72.56489069999999,geocoded
44acb1ff-18e7-40de-822e-c7f32ad504e4-000008d5,H.K. Software,Sundry Creditors,"Ranjan Society, Sardar Patel Colony, Sundar Nagar, Naranpura, Ahmedabad, Gujarat 380013, India",07927682263,hktallyacademy@yahoo.co.in,0.0,0.0,23.0503542,72.5569751,geocoded
44acb1ff-18e7-40de-822e-c7f32ad504e4-000082fc,Hostinger PTE,Sundry Creditors,"16 Raffles Quay, #33 02 Hong Leong Building, Singapore 048581",,,0.0,0.0,1.2814451,103.8508829,geocoded
44acb1ff-18e7-40de-822e-c7f32ad504e4-000082e0,Hosting Safari Private Limited,Sundry Creditors,"D-13/61, Pradeep Bhatia Marg, Pocket 13, Sector 8D, Rohini, Delhi, 110085, India",9999374000,billing@hostingsafari.com,0.0,0.0,28.7068655,77.1234719,geocoded
44acb1ff-18e7-40de-822e-c7f32ad504e4-00003aa6,Hotel Gyansons,Sundry Creditors,"Yavatmal, Maharashtra, India",07232237711243288,,0.0,0.0,20.3899385,78.1306846,geocoded
44acb1ff-18e7-40de-822e-c7f32ad504e4-00003f4c,Hotel Laxvas,Sundry Creditors,,,,0.0,0.0,,,not_found
44acb1ff-18e7-40de-822e-c7f32ad504e4-000039fa,Hotel Railway INN,Sundry Creditors,"5XMH+X36, near, railway station, Sudarshan Colony, Daulat Nagar, Thane East, Thane, Maharashtra 400603, India",022854588558866,,0.0,0.0,19.1848554,72.9775405,geocoded
44acb1ff-18e7-40de-822e-c7f32ad504e4-00005e01,HOTEL SUNCITY PALACE,Sundry Creditors,,,,0.0,0.0,,,not_found
44acb1ff-18e7-40de-822e-c7f32ad504e4-0000513d,HOTEON TRADING PRIVATE LIMITED,Sundry Creditors,,,,0.0,0.0,,,not_found
44acb1ff-18e7-40de-822e-c7f32ad504e4-00002895,HT Media Ltd,Sundry Creditors,"Park Centra, Block A, Sector 30, Gurugram, Haryana 122001, India",,,0.0,0.0,28.4604964,77.0513891,geocoded
44acb1ff-18e7-40de-822e-c7f32ad504e4-000008e0,Idea Cellular Ltd,Sundry Creditors,,,,0.0,0.0,,,not_found
44acb1ff-18e7-40de-822e-c7f32ad504e4-000080e6,IHA Telephony Private Limited,Sundry Creditors,"Pocket A2, Pocket B, Sector 17 Dwarka, Kakrola, Delhi, 110078, India",,accounts@thetelephony.co,11328.0,11328.0,28.5883962,77.0287396,geocoded
44acb1ff-18e7-40de-822e-c7f32ad504e4-00002082,Image Graphics,Sundry Creditors,"21, Ghatkopar - Mahul Rd, Indira Nagar, Tilak Nagar, Kurla, Mumbai, Maharashtra 400089, India",,reshmag06@gmail.com,0.0,0.0,19.066492,72.899502,geocoded
44acb1ff-18e7-40de-822e-c7f32ad504e4-000050c5,IMAGICAAWORLD ENTERTAINMENT LIMITED,Sundry Creditors,"SH92, Maharashtra, India",,,0.0,0.0,18.7444616,73.2880787,geocoded
44acb1ff-18e7-40de-822e-c7f32ad504e4-000037d8,Imagine Design Studios,Sundry Creditors,"Satghara, West Bengal, India",,,0.0,0.0,22.7047745,88.3032755,geocoded
44acb1ff-18e7-40de-822e-c7f32ad504e4-00002691,Indeed India Operations Private LTD.,Sundry Creditors,"Queen's Plaza, Sardar Patel Rd, Patigadda, Begumpet, Hyderabad, Telangana 500003, India",96320821118067301227,rajeshs@indeed.com,0.0,0.0,17.4430911,78.4758286,geocoded
44acb1ff-18e7-40de-822e-c7f32ad504e4-00003b29,Inditex Trent Retail India Pvt Ltd,Sundry Creditors,"1, BLOCK-B1, 1, Ambience Island, DLF Phase 3, Sector 24, Gurugram, Haryana 122010, India",022617015626364,,0.0,0.0,28.5033928,77.0999793,geocoded
44acb1ff-18e7-40de-822e-c7f32ad504e4-00003fdc,Infibeam Avenues Ltd,Sundry Creditors,,,,0.0,0.0,,,not_found
44acb1ff-18e7-40de-822e-c7f32ad504e4-00005e02,Infinite Computer Solutions (India) Ltd.,Sundry Creditors,"2nd phase, 157, EPIP Zone Whitefield Rd, Phase 2, Brookefield, Bengaluru, Karnataka 560066, India",,,0.0,0.0,12.9726137,77.71779269999999,geocoded
44acb1ff-18e7-40de-822e-c7f32ad504e4-0000843b,Infiniti Retail Ltd,Sundry Creditors,,,,0.0,101314.0,,,not_found
44acb1ff-18e7-40de-822e-c7f32ad504e4-00001fb7,Info Edge(India)Ltd,Sundry Creditors,"B-8, Block B, Sector 132, Noida, Uttar Pradesh 201304, India",,,0.0,0.0,28.5133043,77.3720099,geocoded
44acb1ff-18e7-40de-822e-c7f32ad504e4-000008ef,Infowan Technologies,Sundry Creditors,"Sector 2, Shanti Nagar, Mira Road East, Mira Bhayandar, Maharashtra 401107, India",02228111636,info@infowan.net,0.0,0.0,19.2781118,72.8596712,geocoded
44acb1ff-18e7-40de-822e-c7f32ad504e4-000008f3,Innovative Infoway,Sundry Creditors,"Dombivli, Maharashtra, India",,nilesh.samant@live.com,0.0,0.0,19.2094006,73.0939483,geocoded
44acb1ff-18e7-40de-822e-c7f32ad504e4-00003c81,Innovent E-Com LLP,Sundry Creditors,"Bamnoli, Sector 28 Dwarka, Dwarka, Delhi, 110077, India",,,0.0,0.0,28.5447026,77.03269809999999,geocoded
44acb1ff-18e7-40de-822e-c7f32ad504e4-00003a6b,Insafali Traders ( Cr ),Sundry Creditors,"Madina Anwar hotel, Vasil Khan Marg, opp. choti masjid, Two Tanks, Nagpada, Mumbai, Maharashtra 400008, India",,insafalitraders@gmail.com,0.0,0.0,18.9641628,72.8294718,geocoded
44acb1ff-18e7-40de-822e-c7f32ad504e4-0000243e,Intech Online Pvt Ltd,Sundry Creditors,"Teen Hath Naka Flyover, Thane West, Thane, Maharashtra 400604, India",,prashant.kamble@intechonline.net,0.0,0.0,19.187938,72.9638459,geocoded
44acb1ff-18e7-40de-822e-c7f32ad504e4-00005699,Intelloger Software Private Limited,Sundry Creditors,"Wing A, Andheri Gulmohur, Plot No. CTS No. 534, CD Barfiwala Road, Juhu Lane, Yadav Nagar, Andheri West, Mumbai, Maharashtra 400058, India",,rumireminder@gmail.com,-5900.0,-5900.0,19.1153251,72.8397684,geocoded
44acb1ff-18e7-40de-822e-c7f32ad504e4-00003517,InterGlobe Aviation Limited,Sundry Creditors,"Domestic Terminal 1B, Navpada, Vile Parle East, Vile Parle, Mumbai, Maharashtra 400099, India",911244352500,corporate@goindigo.in,0.0,0.0,19.093212,72.8569299,geocoded
44acb1ff-18e7-40de-822e-c7f32ad504e4-000042da,InterGlobe Aviation Limited (Delhi),Sundry Creditors,,,,0.0,0.0,,,not_found
44acb1ff-18e7-40de-822e-c7f32ad504e4-000047dd,Inter Globe Aviation Ltd (W.B.),Sundry Creditors,"Netaji Subhash Chandra Bose International Airport (CCU), Airport Service Rd, International Airport, Dum Dum, Kolkata, West Bengal 700052, India",+911244352500,corporate@goindigo.in,0.0,0.0,22.653564,88.4450847,geocoded
44acb1ff-18e7-40de-822e-c7f32ad504e4-00004b70,International Value Retail Private Limited,Sundry Creditors,"plot -29, 400705, Phase 2, Sector 19D, Vashi, Navi Mumbai, Maharashtra 400703, India",,,0.0,0.0,19.0829635,73.0070614,geocoded
44acb1ff-18e7-40de-822e-c7f32ad504e4-00003bf6,I Plus Sales,Sundry Creditors,"kh no. 18, 1, Street Number 16, Block D, Swaroop Nagar, Bhalswa, Delhi, 110042, India",,,0.0,0.0,28.759317,77.15565079999999,geocoded
44acb1ff-18e7-40de-822e-c7f32ad504e4-00008193,ISHA TEXO FABS,Sundry Creditors,,,,0.0,0.0,,,not_found
44acb1ff-18e7-40de-822e-c7f32ad504e4-0000285e,Itvedh Prabodhini,Sundry Creditors,"Pada No.2, Thane West, Thane, Maharashtra 400606, India",,,0.0,0.0,19.2100382,72.9539922,geocoded
44acb1ff-18e7-40de-822e-c7f32ad504e4-00003cb4,Jai Ambay Enterprises,Sundry Creditors,"Kurund, Maharashtra 421101, India",,,0.0,0.0,19.3673751,73.1581939,geocoded
44acb1ff-18e7-40de-822e-c7f32ad504e4-00003232,Jai Laxmi Enterprises,Sundry Creditors,"Gokul Nagar, Thane West, Thane, Maharashtra 400601, India",2172254121722542,,0.0,0.0,19.2101867,72.976321,geocoded
44acb1ff-18e7-40de-822e-c7f32ad504e4-000010c4,Jaipur Infotech,Sundry Creditors,"Malviya Nagar, Jaipur, Rajasthan 302017, India",,,0.0,0.0,26.8550079,75.82409539999999,geocoded
44acb1ff-18e7-40de-822e-c7f32ad504e4-0000413f,Jaiswal Enterprises,Sundry Creditors,"747H+V24, Chanakya Nagar, Khadakpada, Kalyan, Maharashtra 421301, India",9987864929,rajkumarij38@gmail.com,0.0,0.0,19.2646343,73.1275691,geocoded
44acb1ff-18e7-40de-822e-c7f32ad504e4-00003a6a,Janata Stationers,Sundry Creditors,"5XQ8+2VG, Mahatma Gandhi Rd, Prashant Nagar, Vishnu Nagar, Thane West, Thane, Maharashtra 400602, India",0222543743725438438,janata_trophy@rediffmail.com,0.0,0.0,19.1875687,72.9671913,geocoded
44acb1ff-18e7-40de-822e-c7f32ad504e4-00002e8a,Jayesh  Sampat,Sundry Creditors,"117, Babu Genu Rd, Munucipal Colony, Kalbadevi, Mumbai, Maharashtra 400002, India",9870026457,jaytally9@gmail.com,0.0,0.0,18.9477417,72.8289209,geocoded
44acb1ff-18e7-40de-822e-c7f32ad504e4-0000197d,Jay Mata Di Marketing,Sundry Creditors,"Titwala, Maharashtra 421605, India",,,0.0,0.0,19.2961189,73.2034805,geocoded
44acb1ff-18e7-40de-822e-c7f32ad504e4-00005d42,Jeel Enterprises,Sundry Creditors,"16, Road No. 33, Dnyaneshwar Nagar, Thane West, Thane, Maharashtra 400604, India",,,-755.0,-755.0,19.2020226,72.95764919999999,geocoded
44acb1ff-18e7-40de-822e-c7f32ad504e4-0000180f,Jeenali Manish Mehta,Sundry Creditors,"5XC2+QG8, Dr Ambedkar Rd, Near Ganesh Gawde Marg, Vidya Vihar, Mulund West, Mumbai, Maharashtra 400080, India",02225693039,millennium005@gmail.com,211200.0,211200.0,19.1719239,72.9513324,geocoded
44acb1ff-18e7-40de-822e-c7f32ad504e4-000035c4,Jeeves consumer services Private Limited,Sundry Creditors,"L 169 Incubex, 13th Cross Rd, Sector 6, HSR Layout, Bengaluru, Karnataka 560102, India",,,0.0,0.0,12.91617,77.6309984,geocoded
44acb1ff-18e7-40de-822e-c7f32ad504e4-00003fdd,Jenny Designer,Sundry Creditors,,,,0.0,0.0,,,not_found
44acb1ff-18e7-40de-822e-c7f32ad504e4-000039e3,Jharkhand State Livelihood Promotion Society,Sundry Creditors,"Radium Rd, Ranchi, Jharkhand, India",,,0.0,0.0,23.3815908,85.3247056,geocoded
44acb1ff-18e7-40de-822e-c7f32ad504e4-00003100,Jigar Gala,Sundry Creditors,"Sayani Marg, Ameya Society, Century Bazaar, Prabhadevi, Mumbai, Maharashtra 400025, India",,,0.0,0.0,19.014142,72.827617,geocoded
44acb1ff-18e7-40de-822e-c7f32ad504e4-000081bb,JM Products and Services,Sundry Creditors,,,,799.0,799.0,,,not_found
44acb1ff-18e7-40de-822e-c7f32ad504e4-00002483,Jobbell Enterprises,Sundry Creditors,"Wadavali Village, RCF Colony, Chembur, Mumbai, Maharashtra 400074, India",,hr.jobbell@gmail.com,0.0,0.0,19.0390631,72.8962227,geocoded
44acb1ff-18e7-40de-822e-c7f32ad504e4-00005e4e,Joyyperk Digital India Private Limited,Sundry Creditors,"Rustomjee Ozone Tower 2, Mahesh Nagar, Goregaon West, Mumbai, Maharashtra 400104, India",,,0.0,0.0,19.1731112,72.8411165,geocoded
44acb1ff-18e7-40de-822e-c7f32ad504e4-00005f3d,JRD PRIDE HOTEL,Sundry Creditors,"744, Mathura Rd, Jangpura, Bhogal, New Delhi, Delhi 110014, India",9811664363,jrdpride@gmail.com,0.0,0.0,28.5832205,77.2508611,geocoded
44acb1ff-18e7-40de-822e-c7f32ad504e4-00003ad5,K9 Media,Sundry Creditors,"Savaliya Park, GCC Club Rd, near Haria's Dream Park, off Mira Bhayandar Road, Wing-A, Hatkesh Udhog Nagar, Mira Road East, Mira Bhayandar, Maharashtra 401107, India",,k9media1982@gmail.com,0.0,0.0,19.2826482,72.87639480000001,geocoded
44acb1ff-18e7-40de-822e-c7f32ad504e4-000082b4,Kapil Maheshwari,Sundry Creditors,"no 17, Kalpataru Industrial Estate Rd, Sambhaji Nagar, Manorama Nagar, Thane West, Thane, Maharashtra 400607, India",,,0.0,0.0,19.2320105,72.9788336,geocoded
44acb1ff-18e7-40de-822e-c7f32ad504e4-00004181,Kashmir Walnut Overseas Pvt Ltd,Sundry Creditors,"Kurund, Maharashtra 421101, India",,,0.0,0.0,19.3673751,73.1581939,geocoded
44acb1ff-18e7-40de-822e-c7f32ad504e4-000042dc,KAY KAY OVERSEAS CORPORATION,Sundry Creditors,,,,0.0,0.0,,,not_found
44acb1ff-18e7-40de-822e-c7f32ad504e4-00000946,K.D.K. Software (I) Pvt Ltd,Sundry Creditors,"SB vihar, 27,28,29, Radha Vihar, S.b. Vihar, Shiva Colony, Govindpuri, Jaipur, Rajasthan 302019, India",01413235005,arun@kdksoftware.com,0.0,0.0,26.8879414,75.7734909,geocoded
44acb1ff-18e7-40de-822e-c7f32ad504e4-00004b71,Kesari Nandan Eletronics,Sundry Creditors,"Chhatrapati Sambhajinagar, Maharashtra 431001, India",,,0.0,0.0,19.8756639,75.3393162,geocoded
44acb1ff-18e7-40de-822e-c7f32ad504e4-0000094c,Keshav Computer Private Ltd.,Sundry Creditors,"BPS estate, Silver Court, bus depot, 1201, Devi Dayal Rd, near devidayal, Mulund, Mulund West, Mumbai, Maharashtra 400080, India",2225606552259282052567169408527,citycomp@vsnl.net,1957010.0,1769023.12,19.1751312,72.94597929999999,geocoded
44acb1ff-18e7-40de-822e-c7f32ad504e4-00003031,Kestone Integrated Marketing Services Pvt Ltd,Sundry Creditors,"3rd Floor, 8, Guru Ravidas Marg, Balaji Estate, Kalkaji, New Delhi, Delhi 110019, India",,,0.0,0.0,28.5413446,77.2614847,geocoded
44acb1ff-18e7-40de-822e-c7f32ad504e4-00001f08,Kida Retail (P) Ltd,Sundry Creditors,"Mumbai - Nashik Expy, Maharashtra, India",,,0.0,0.0,19.602305,73.3967715,geocoded
44acb1ff-18e7-40de-822e-c7f32ad504e4-00005fc8,Kohinoor Televideo Pvt Ltd,Sundry Creditors,"Eternity Mall, Teen Hath Naka, Eastern Express Highway, Lal Bahadur Shastri Marg, Thane West, Thane, Maharashtra 400604, India",,,0.0,0.0,19.1869973,72.96255699999999,geocoded
44acb1ff-18e7-40de-822e-c7f32ad504e4-00004f65,KRIPASHREE JEWELS PRIVATE LIMITED,Sundry Creditors,"2, Kankarbagh Main Rd, Kankarbagh Colony More, Ghrounda, Patna, Bihar 800001, India",,,0.0,0.0,25.603105,85.14608,geocoded
44acb1ff-18e7-40de-822e-c7f32ad504e4-0000361f,Krishna Battery Sales & Services,Sundry Creditors,"Thane, Maharashtra 400601, India",,,0.0,0.0,19.2010502,72.97853529999999,geocoded
44acb1ff-18e7-40de-822e-c7f32ad504e4-0000469c,Kunal Ranjan,Sundry Creditors,,,,-7500.0,-7500.0,,,not_found
44acb1ff-18e7-40de-822e-c7f32ad504e4-00002886,Kushark Jaiswal,Sundry Creditors,,,,0.0,0.0,,,not_found
44acb1ff-18e7-40de-822e-c7f32ad504e4-000081f7,LAL SWEETS PRIVATE LTD,Sundry Creditors,,,,0.0,0.0,,,not_found
44acb1ff-18e7-40de-822e-c7f32ad504e4-00003b34,Laser House,Sundry Creditors,"Shop No. 3-4, Shanti Tower Basement,, Vakilwadi Corner, Ashok Stambh, Nahsik , Maharashtra -422001",,,0.0,0.0,,,not_found
44acb1ff-18e7-40de-822e-c7f32ad504e4-00003805,Laxmi Plaza,Sundry Creditors,"Laxmi Plaza, Shop No 57, Plot No 61/62, Sector - 21, Chaturbhuj Chs, Near Icici Bank And Shilp Chowk, New Mumbai - 410210",,,0.0,0.0,,,not_found
44acb1ff-18e7-40de-822e-c7f32ad504e4-00003829,Laxmi Traders ( Creditor ),Sundry Creditors,"Wb-10/11, Renaissance Logistics Park, Near Vill - Padgha, Off Nh-3, Taluka Bhiwadi, District - Thane - 421302",,,0.0,0.0,,,not_found
44acb1ff-18e7-40de-822e-c7f32ad504e4-00004c27,Leanwork Solutions Llp,Sundry Creditors,"1St Floor Shop No 10, Chandresh Villa Rh, A/1, Lodha Heaven, Above Udupi Grans, Near Hotel Manu, Dombivli, Thane-421204",,,0.0,0.0,,,not_found
44acb1ff-18e7-40de-822e-c7f32ad504e4-00003af2,Leather N Leather,Sundry Creditors,"Plot No 42 And 43, Arrjavv Industrial &, Warehouse Parkt, Dankuni , Near Coal India Complex, Hooghly West Bengal - 712310",,,0.0,0.0,,,not_found
44acb1ff-18e7-40de-822e-c7f32ad504e4-000081f5,LE TRAVENUES TECHNOLOGY LIMITED,Sundry Creditors,,,,0.0,0.0,,,not_found
44acb1ff-18e7-40de-822e-c7f32ad504e4-00004023,LLC WAZZUP RIGA LV,Sundry Creditors,,,,-34633.62,-34633.62,,,not_found
44acb1ff-18e7-40de-822e-c7f32ad504e4-0000517a,LOKESH GAHLOT,Sundry Creditors,,,,0.0,0.0,,,not_found
44acb1ff-18e7-40de-822e-c7f32ad504e4-00008588,Lokhandwalla Automobiles,Sundry Creditors,,,,0.0,-8601.06,,,not_found
44acb1ff-18e7-40de-822e-c7f32ad504e4-0000121a,Loop Byte Web Services Pvt Ltd.,Sundry Creditors,"D- 136, Firdos Nagar, Pgbt College Road, Bhopal - 462001",07556451603,,0.0,0.0,,,not_found
44acb1ff-18e7-40de-822e-c7f32ad504e4-00001383,LPB Solutions Pvt.Ltd (Consultant),Sundry Creditors,,,,0.0,0.0,,,not_found
44acb1ff-18e7-40de-822e-c7f32ad504e4-0000804a,LUMINARY LIFESTYLE PRIVATE LIMITED,Sundry Creditors,,,,0.0,0.0,,,not_found
44acb1ff-18e7-40de-822e-c7f32ad504e4-00005ef7,"Maa Shakambari Sewa Samiti, Sakraidham",Sundry Creditors,Udaipurwati,,,0.0,0.0,,,not_found
44acb1ff-18e7-40de-822e-c7f32ad504e4-00005f59,MAAULI ENTERPRISES,Sundry Creditors,"Shop No-1 Keshav Pada P.K.Road, Nr Sai Baba Temple Mulund W, Mumbai Maharashtra",9967654005,maaulienterprises_126@rediffmail.com,0.0,0.0,,,not_found
44acb1ff-18e7-40de-822e-c7f32ad504e4-000038d5,MacBay Inc.,Sundry Creditors,"Wb-10/11, Renaissance Logisstics Park, Near Vill. Padgha, Off. Nh-3, Taluka Bhiwandi, District -Thane - Maharashtra - 421302",,,0.0,0.0,,,not_found
44acb1ff-18e7-40de-822e-c7f32ad504e4-00003cbc,Madaan Enterprises,Sundry Creditors,"Madaan Building, Pind Nangali, 2Nd Floor, Fatehgarh Churiyan Road Amritsar, Punjab, 143001",,,0.0,0.0,,,not_found
44acb1ff-18e7-40de-822e-c7f32ad504e4-00008199,MADHAV RETAIL,Sundry Creditors,,,,0.0,0.0,,,not_found
44acb1ff-18e7-40de-822e-c7f32ad504e4-00001b5a,Magellanic Solutions Pvt Ltd,Sundry Creditors,"Mr.Rohit Jadhav, 5, Namrata Apt, Bhusar Ali, Kalwa, Thane -400605",02225444500,rohit.jadhav@magellanicsolutions.in,0.0,0.0,,,not_found
44acb1ff-18e7-40de-822e-c7f32ad504e4-0000517b,MAHAABALA INC.,Sundry Creditors,"533, 5Th Floor, Lodha Supremus, Road No 22, Thane",,,176040.0,-159740.0,,,not_found
44acb1ff-18e7-40de-822e-c7f32ad504e4-000038f6,Mahadev Electric And Hardware,Sundry Creditors,"Shop No 13-14 , Adinath Alpine, Sector 25, Plot No 28 A, Kamothe, Navi Mumbai , Maharashtra - 401209",,,0.0,0.0,,,not_found
44acb1ff-18e7-40de-822e-c7f32ad504e4-00005ef8,Mahadev Stationery & Xerox,Sundry Creditors,"Shop No 1, Bhuta Niwas, Apoolo Ind Estae Nagardas Road, Andheri East, Mumbai, Suburban, Maharashtra, 400069",9920601484,mahadevstationery81@gmail.com,0.0,0.0,,,not_found
44acb1ff-18e7-40de-822e-c7f32ad504e4-0000819f,MAHAKALI HARDWARE AND SANITARY,Sundry Creditors,,,,437.0,437.0,,,not_found
44acb1ff-18e7-40de-822e-c7f32ad504e4-0000398b,Mahanagar Telephone Nigam Limited ( Cr ),Sundry Creditors,"6Th Floor, Charai Telephone Exchange Building, Mauli Mandal Road, Dhobi Ali, Thane West - 400601",,,0.0,0.0,,,not_found
44acb1ff-18e7-40de-822e-c7f32ad504e4-00008372,"Maharashtra State Ele, Distr. (MSED)",Sundry Creditors,,,,19120.0,33370.0,,,not_found
44acb1ff-18e7-40de-822e-c7f32ad504e4-00003952,Maharashtra State Rural Livelihoods Mission,Sundry Creditors,,,,0.0,0.0,,,not_found
44acb1ff-18e7-40de-822e-c7f32ad504e4-00004185,Mahek Sales,Sundry Creditors,"Plot B/76 Pranami Shopping Center, Reliance, Petrol Pump,Ved Road, Surat, Gujarat, 395004",,,0.0,0.0,,,not_found
44acb1ff-18e7-40de-822e-c7f32ad504e4-00004f77,Maksym Zhuravlov,Sundry Creditors,,,zhuravlov@avivi.info,0.0,0.0,,,not_found
44acb1ff-18e7-40de-822e-c7f32ad504e4-000057a9,Mamta Gems,Sundry Creditors,"7-C, Trimurti Apartment, Opp. Corner Point, City Light, Surat- 395007",,,0.0,0.0,,,not_found
44acb1ff-18e7-40de-822e-c7f32ad504e4-000081ea,MAND ENTERPRISES (G),Sundry Creditors,,,,0.0,0.0,,,not_found
44acb1ff-18e7-40de-822e-c7f32ad504e4-00003bfa,Manoj Kumar Sharma,Sundry Creditors,,,,0.0,0.0,,,not_found
44acb1ff-18e7-40de-822e-c7f32ad504e4-00003aa4,Map Infocom LLP,Sundry Creditors,"11-12 Dav School Building , Yusuf Saraj, Green Park, New Delhi, Delhi 110016",,,0.0,0.0,,,not_found
44acb1ff-18e7-40de-822e-c7f32ad504e4-0000806e,Maple Digital Technology Int. Pvt Ltd,Sundry Creditors,"Castalia, A-Wing, Grnd Floor, S-10, Bldg-25",,,0.0,0.0,,,not_found
44acb1ff-18e7-40de-822e-c7f32ad504e4-00003cbb,Mathur & Sons,Sundry Creditors,"Kh. No. 235, Ground Floor, Mukund Pur, Delhi, 110042",,,0.0,0.0,,,not_found
44acb1ff-18e7-40de-822e-c7f32ad504e4-00001697,Maxcom Electronics,Sundry Creditors,"Mr.Jayesh Bhai Maxcom, 3,Gandhi Bhvan,Chunam Lane, Off. Lamington Road , Mumbai-400 007., Tel No.0223882728/23873251, Fax-23873251",2388272823873251,,0.0,0.0,,,not_found
44acb1ff-18e7-40de-822e-c7f32ad504e4-00003ae4,Mayakrishna Sales Pvt Ltd,Sundry Creditors,Gt Road Sahibabad Uttarpradesh,,,0.0,0.0,,,not_found
44acb1ff-18e7-40de-822e-c7f32ad504e4-00004248,Mayanak Sharma U/G Pankaj Sharma,Sundry Creditors,"Wa12A, Near Hanuman Mandir, Laxmi Nagar New Delhi 110092",9690490270,ermayank1204@gmail.com,0.0,0.0,,,not_found
44acb1ff-18e7-40de-822e-c7f32ad504e4-00003a00,Mayur Gosrani and Associates(Consultant),Sundry Creditors,"H.No. 959 2Nd Floor R. No. 201, Satguru Apartment Devji Nagar, Narpoli, Bhiwandi ? 421302",,camayurgosrani@gmail.com,0.0,0.0,,,not_found
44acb1ff-18e7-40de-822e-c7f32ad504e4-000022d6,Meena Jajodia,Sundry Creditors,,,,0.0,-2100.0,,,not_found
44acb1ff-18e7-40de-822e-c7f32ad504e4-000082b5,Metal And Stainless Steel Merchant Association,Sundry Creditors,"1 Floor, 63, Jamnadas Building, 10Th Khetwadi Lane, Mumbai, Maharashtra, 400004",,massma25org@gmail.com,0.0,0.0,,,not_found
44acb1ff-18e7-40de-822e-c7f32ad504e4-000029c5,Metal & Stainless Steel Merchant's Association,Sundry Creditors,"Mr., Regd Off 63 Jamnasas Buldg, Gr.Fl 10Th Khetwadi Lane Back Road, Mumbai-400 004, Tel :- 66393627/67438473",,,0.0,0.0,,,not_found
44acb1ff-18e7-40de-822e-c7f32ad504e4-000042d4,Microsoft Corporation (India) Pvt Ltd,Sundry Creditors,"Tower C, Building No. 5, 10, Dlf Epitome, Dlf Cyber City, Sector 25 A, Phase Iii, Gurugram, Haryana, 122002",,,-1263.61,-1285.91,,,not_found
44acb1ff-18e7-40de-822e-c7f32ad504e4-000009cd,Millennium Software Productions India Pvt Ltd,Sundry Creditors,"Chennai T Nagar Branch, 7, Bazullah Road, T Nagar, Chennai - 600017",04442946555,naveen@echomail.com,0.0,0.0,,,not_found
44acb1ff-18e7-40de-822e-c7f32ad504e4-00003e2a,Minimal Confections,Sundry Creditors,"Plot No 40 Tapidarshan Society 1, Coseway Circle, Singanpore,Katargam, Surat, Gujarat, 395004",,,0.0,0.0,,,not_found
44acb1ff-18e7-40de-822e-c7f32ad504e4-00003a71,Ministry of Railways,Sundry Creditors,,,,0.0,0.0,,,not_found
44acb1ff-18e7-40de-822e-c7f32ad504e4-000009d1,Miru / Memu / Mikki Bai,Sundry Creditors,,,,0.0,0.0,,,not_found
44acb1ff-18e7-40de-822e-c7f32ad504e4-00003f4f,Mishti Enterprises,Sundry Creditors,,,,0.0,0.0,,,not_found
44acb1ff-18e7-40de-822e-c7f32ad504e4-00005ee0,MITRA & ASSOCIATES,Sundry Creditors,"P-176/1, Fifth Floor, Cit Scheme-Viim, Beside Kumayun Drug, Ultadanga Tram Depot, Kolkata 700054",,mitralegal500@gmail.com,0.0,0.0,,,not_found
44acb1ff-18e7-40de-822e-c7f32ad504e4-000034ca,M J e-Retail,Sundry Creditors,"B-1619, B Block, Shastri Nagar, Near Gurudwara *, New Delhi, Delhi, 110052",,,0.0,0.0,,,not_found
44acb1ff-18e7-40de-822e-c7f32ad504e4-0000570e,ML BROTHER LLP,Sundry Creditors,,,,0.0,0.0,,,not_found
44acb1ff-18e7-40de-822e-c7f32ad504e4-00003ea4,Mobitech,Sundry Creditors,"Room No 210 Hotel Bb Palace, Second Floor, Gurudwara Road, Karolbagh New Delhi 110005",,,0.0,0.0,,,not_found
44acb1ff-18e7-40de-822e-c7f32ad504e4-00004511,MOBITECH CREATIONS PRIVATE LIMITED,Sundry Creditors,"Hira Property, Ground Floor, Mezzanine Floor, Bridage Road, Bridage Road, Bengaluru Urban, Karnataka, 560001",,,0.0,0.0,,,not_found
44acb1ff-18e7-40de-822e-c7f32ad504e4-00003388,Mohan nandlal kharwar,Sundry Creditors,"C/O Jeevan Builder, Shop No.3, Jeevan Jyoti, Kasturba Road No 1, Opp Abhyudaya Bank, Borivali East.400066",,,0.0,0.0,,,not_found
44acb1ff-18e7-40de-822e-c7f32ad504e4-00001612,Mohan Pandit Ji,Sundry Creditors,Mobile No. 8233-646571,,,0.0,0.0,,,not_found
44acb1ff-18e7-40de-822e-c7f32ad504e4-0000378e,Mohd Sohel Shaikh,Sundry Creditors,,9960339005,,0.0,0.0,,,not_found
44acb1ff-18e7-40de-822e-c7f32ad504e4-000081a9,M/S ATM RETAIL,Sundry Creditors,,,,2499.0,2499.0,,,not_found
44acb1ff-18e7-40de-822e-c7f32ad504e4-0000819b,M/S DECENT GLASS,Sundry Creditors,,,,296.0,296.0,,,not_found
44acb1ff-18e7-40de-822e-c7f32ad504e4-000085d0,MSEDCL,Sundry Creditors,,,,0.0,-53980.0,,,not_found
44acb1ff-18e7-40de-822e-c7f32ad504e4-0000819d,M/S ENDEAVAR,Sundry Creditors,,,,1038.0,1038.0,,,not_found
44acb1ff-18e7-40de-822e-c7f32ad504e4-00003a6c,M/S E RETAIL INDIA,Sundry Creditors,,,,0.0,0.0,,,not_found
44acb1ff-18e7-40de-822e-c7f32ad504e4-00002670,"MSME-Di , Mumbai",Sundry Creditors,"Room Number 217, Msme Development Institute, Ministry Of Msme, Govt. Of India,, Kurla Andheri Road , Sakinaka, Mumbai 400072",,,0.0,0.0,,,not_found
44acb1ff-18e7-40de-822e-c7f32ad504e4-00003c26,M/s. Shakti Electricals,Sundry Creditors,"D/202 Vivek Chs, Besant Street, Santacruz West Mumbai 400 054.",,nileshelectricals2000@yahoo.com,0.0,0.0,,,not_found
44acb1ff-18e7-40de-822e-c7f32ad504e4-000042dd,M/S SWAY HOME DECOR,Sundry Creditors,"Near Chaudhry Charan Singh Inter College, House No - 11, Tajpur Mafi Ki Malik, Up",,,0.0,0.0,,,not_found
44acb1ff-18e7-40de-822e-c7f32ad504e4-00003881,MTT Telcom Private Limited,Sundry Creditors,"Anjaneya Infrastructure Project No.38 & 39, Soukya Road, Kacherakanahalli, Hoskote Taluka, Bangalore, Karnataka, 560067",,,0.0,0.0,,,not_found
44acb1ff-18e7-40de-822e-c7f32ad504e4-000015d6,Mukund Bhatt,Sundry Creditors,"C 201,Royal Complex, Bachani Nagar, Kasam Bhagh, Malad , Mobile No. 9224512463/9323836471, Tel.No.022-23473040",02223473040,,0.0,0.0,,,not_found
44acb1ff-18e7-40de-822e-c7f32ad504e4-0000816b,MYSORE DEEP PERFUMERY HOUSE,Sundry Creditors,,,,319.0,319.0,,,not_found
44acb1ff-18e7-40de-822e-c7f32ad504e4-000041d0,My Store,Sundry Creditors,,,,0.0,0.0,,,not_found
44acb1ff-18e7-40de-822e-c7f32ad504e4-000039a4,NABARD Consultancy Pvt Ltd,Sundry Creditors,,,,0.0,0.0,,,not_found
44acb1ff-18e7-40de-822e-c7f32ad504e4-000042e0,Nandani Enterprises,Sundry Creditors,,,,0.0,-210000.0,,,not_found
44acb1ff-18e7-40de-822e-c7f32ad504e4-000042a1,Nand Kumar,Sundry Creditors,,,,649.0,649.0,,,not_found
44acb1ff-18e7-40de-822e-c7f32ad504e4-00003caf,Navrang,Sundry Creditors,"W-2, K N Park Society, Opp Sutex Bank, Uchana Magdalla Road, Near Navjivan Circle, Surat, Gujarat 395007",,,0.0,0.0,,,not_found
44acb1ff-18e7-40de-822e-c7f32ad504e4-00003ea5,Navrang Handicraft,Sundry Creditors,"Wh - 10, Crystal Indus Logistics Park, Bhaylaahmedabad, Gujarat, 382220",,,0.0,0.0,,,not_found
44acb1ff-18e7-40de-822e-c7f32ad504e4-00003ba9,Nectar Biopharma Private Limited,Sundry Creditors,"5/2, K-Square Industrial And Logistics Park, Near, Pushkar Mela, Off. National Highway 3, Village, Kurund, Taluka Bhiwandi, Hiwandi, Maharashtra, 421302",,,0.0,0.0,,,not_found
44acb1ff-18e7-40de-822e-c7f32ad504e4-00003e2e,Nectar Biopharma Pvt Ltd,Sundry Creditors,"Survey No. 38/2, 39 And 40, Jadigenahalli Hobli,Kacharakanahalli Village, Hosakote Taluk, Bengaluru, Bangalore, Karnataka, 562114",,,0.0,0.0,,,not_found
44acb1ff-18e7-40de-822e-c7f32ad504e4-00003cb8,Need Matters,Sundry Creditors,"3Rd Floor , Next To Andhra Bank , Samraat, Commercial Complex, Saifabad, Hyderabad, Telangana, 500004",,,0.0,0.0,,,not_found
44acb1ff-18e7-40de-822e-c7f32ad504e4-00003cb3,Neha Garg,Sundry Creditors,"Lu-100, 1St Floor, Pitampura, Near District Park, New Delhi, New Delhi 110088",,,0.0,0.0,,,not_found
44acb1ff-18e7-40de-822e-c7f32ad504e4-00008444,Neodove Technologies Limited,Sundry Creditors,,,,-15339.0,-11800.0,,,not_found
44acb1ff-18e7-40de-822e-c7f32ad504e4-000019a4,Netflix Technologies,Sundry Creditors,"Mr.Bhavin, 217/96 Swami Naicken Street , Gr. Floor, Chinthadripet,Chennai -600 002, Tel No.42924292, Email Id ;Netfixtechnologies@Gmail.Com",02242924292,netfixtechnologies@gmail.com,0.0,0.0,,,not_found
44acb1ff-18e7-40de-822e-c7f32ad504e4-000042f8,Net line infotech,Sundry Creditors,"527-R Model Town Ludhiana, Punjab, 141002",,,0.0,0.0,,,not_found
44acb1ff-18e7-40de-822e-c7f32ad504e4-000023f6,Nevpro Business Solutions Privaye Limited,Sundry Creditors,"Mr., B-131, Balaji Bavan, Plot No. 42A, Sector 11, C B D Belapur, Belapur, Navi Mumbai 400614",0226673657778022679365777802241270326,info@nevpro.co.in,0.0,0.0,,,not_found
44acb1ff-18e7-40de-822e-c7f32ad504e4-000032a3,New Age Enterprises,Sundry Creditors,"Shop.Np:-3 & 4, Royal Tower, Plot.No.52, Sectore 8A, Airoli,Navi Mumbai-400708",,,0.0,0.0,,,not_found
44acb1ff-18e7-40de-822e-c7f32ad504e4-00003b35,Nexis Enterprises,Sundry Creditors,"X/6480 Band Mukherjee Gali Gandhi Nagar, Gandhi Nagar Delhi-110031",,,0.0,0.0,,,not_found
44acb1ff-18e7-40de-822e-c7f32ad504e4-0000596a,NGUYENNGAN,Sundry Creditors,,,,-17240.22,-17240.22,,,not_found
44acb1ff-18e7-40de-822e-c7f32ad504e4-00001686,Nikunj S Shah and Associates (Auditor),Sundry Creditors,"Ca Nikunj Shah, B 3 , Ramjyoti , Dhanvantri Hospital , 5 Rasta Ns Road , Mulund, Mob : 9892195103 / 07738600881, Mail : Canikunjsshah@Gmail.Com, Canikunjsshah@Hotmail.Com / Canikunjsshah@Gmail.Com",,canikunjsshah@gmail.com,0.0,0.0,,,not_found
44acb1ff-18e7-40de-822e-c7f32ad504e4-00008468,Nilesh Ayodhya Nath Sharma,Sundry Creditors,,,,0.0,0.0,,,not_found
44acb1ff-18e7-40de-822e-c7f32ad504e4-00008458,Nilesh Thakur,Sundry Creditors,,,,0.0,0.0,,,not_found
44acb1ff-18e7-40de-822e-c7f32ad504e4-000085e2,Niraj Kumar,Sundry Creditors,,,,0.0,0.0,,,not_found
44acb1ff-18e7-40de-822e-c7f32ad504e4-00003b62,Nitya Infotech,Sundry Creditors,"Room No.4 Sohil Nx Opp Chetana Hospital R R T, Road Mulund(W) Mumbai-400080",2592879395,nityagroup_3@hotmail.com,0.0,0.0,,,not_found
44acb1ff-18e7-40de-822e-c7f32ad504e4-00003b9c,Niyati Fab,Sundry Creditors,"B/407, Siciliya Shopping Center, Near Radhe Chowk, Sudama Chowk,Mota Varachha Surat 395006",,,0.0,0.0,,,not_found
44acb1ff-18e7-40de-822e-c7f32ad504e4-000080d2,N K PODDAR E-COMM IT,Sundry Creditors,,,,0.0,0.0,,,not_found
44acb1ff-18e7-40de-822e-c7f32ad504e4-00003d52,Nureca Private Limited,Sundry Creditors,,,,0.0,0.0,,,not_found
44acb1ff-18e7-40de-822e-c7f32ad504e4-00003e2f,Nutndiet Llp,Sundry Creditors,"Sy No. 524/1,2,3,4,6, 525/1,2,3,4,5,6, 526/3,4,5,6,527 Of Madivala Village And Sy No.51/1, Of Thatanahalli Village, Kasaba Hobli, Anekal Taluk, Bangalore Urban District, Bangalore, Karnataka, 562107",,,0.0,0.0,,,not_found
44acb1ff-18e7-40de-822e-c7f32ad504e4-00001d94,Office Shop Private Limited,Sundry Creditors,"Mr., Prathmesh Complex, Building No. H, Opp. Vatika Restautant, Mumbi Nasik Highway No. 3, Bhiwandi By-Pass Road, Bhiwandi 421302",,,0.0,0.0,,,not_found
44acb1ff-18e7-40de-822e-c7f32ad504e4-0000570f,OMKARA ASSOCIATES,Sundry Creditors,,,,0.0,0.0,,,not_found
44acb1ff-18e7-40de-822e-c7f32ad504e4-000016a8,Omni Hosting,Sundry Creditors,"Opp.Ganga Gate No.-38, Rajapur,Mainpura, Patna-1, Email Id :-Support@Omnihosting.In, Mobile No.9931457163",,support@omnihosting.in,162.0,-7261.0,,,not_found
44acb1ff-18e7-40de-822e-c7f32ad504e4-000081ab,OM PRABHU STEELS,Sundry Creditors,,,,0.0,0.0,,,not_found
44acb1ff-18e7-40de-822e-c7f32ad504e4-00005858,Oneplus Technology India Private Limited,Sundry Creditors,"Village - Bamnoli, Tehsil - Vasant, Vihar, Dwaraka Sec 28, New Delhi, Khasra No 04 2 2And 03 2 8, New, Delhi, South West Delhi- 110077",,,-1174.27,-1174.27,,,not_found
44acb1ff-18e7-40de-822e-c7f32ad504e4-00004187,Onsite Electro Services Pvt Ltd,Sundry Creditors,"Skyline Icon, G-3A, 86/92, Andheri - Kurla Rd, Chimatpada, Marol, Mumbai, Maharashtra, 400059",,,0.0,0.0,,,not_found
44acb1ff-18e7-40de-822e-c7f32ad504e4-00003ad8,Orient Bazzar LLP,Sundry Creditors,"Unit No - 1, Khewat/ Khata No 372/400, Mustatil No 31. Village Taoru, Tehsil Taoru, Dist Mewat, Onbilaspur Taoru Road, Mewat Hariyana 1221005",,,0.0,0.0,,,not_found
44acb1ff-18e7-40de-822e-c7f32ad504e4-000081e5,Osman Md Bani & Sons Trading Co.Ltd.,Sundry Creditors,,,,0.0,0.0,,,not_found
44acb1ff-18e7-40de-822e-c7f32ad504e4-00003c84,Otica Meditronix Co,Sundry Creditors,"E-10, Saptgiri Duplex, Opp Taj Residency, Near Akota Garden, Akota, Vadodara, Gujarat, 390020",,,0.0,0.0,,,not_found
44acb1ff-18e7-40de-822e-c7f32ad504e4-00003747,Pacific System& Service,Sundry Creditors,"C/O Yusen Logistics, Survey No 2(Part), Ring, Road, Mr-11, Village Pipliya Kumhar, Near, Metro Cash & Carry Store, Indore, Madhya Pradesh, 453771",,,0.0,0.0,,,not_found
44acb1ff-18e7-40de-822e-c7f32ad504e4-00003ed9,Paddle.com Market Ltd (Cr),Sundry Creditors,"15 Briery Close Great Oakley, Corby, Nn18 8Jg, Northamptonshire",,,0.0,0.0,,,not_found
44acb1ff-18e7-40de-822e-c7f32ad504e4-00005052,Painter (Raj Laxman),Sundry Creditors,,,,0.0,0.0,,,not_found
44acb1ff-18e7-40de-822e-c7f32ad504e4-00002792,Pandit Indrachand Ratan Grah,Sundry Creditors,Mobile No.:- 099823,,,0.0,0.0,,,not_found
44acb1ff-18e7-40de-822e-c7f32ad504e4-00008408,Pandit Mhaskar,Sundry Creditors,,,,0.0,0.0,,,not_found
44acb1ff-18e7-40de-822e-c7f32ad504e4-00002ec5,Pankypunna E-Commerce Pvt Ltd,Sundry Creditors,"Flat No 304 3Rd Floor H Wing, Ritu Paradise, Bldg No H Chsl Mira Road (E), Mumbai- 401107",,,0.0,0.0,,,not_found
44acb1ff-18e7-40de-822e-c7f32ad504e4-00003e9c,Paragon Telelinks Pvt Ltd,Sundry Creditors,"3A/3B, Orion Buiness Park, Next To Cine Wonder, Majiwada Junction, Ghobdunder Road, Thane West, Thane",,,0.0,0.0,,,not_found
44acb1ff-18e7-40de-822e-c7f32ad504e4-000036ad,Paras Trading Corpotation,Sundry Creditors,"9 Anand Bhuvan 1St Floor Manchhubhai Road Malad, East Mumbai",02232717336,meghnapbs@yahoo.com,0.0,0.0,,,not_found
44acb1ff-18e7-40de-822e-c7f32ad504e4-00003b07,Park Avenue,Sundry Creditors,"Gf- 69, Viva City, Next To Jupiter Hospital, Pokharan Road No - 2, Thane West - 400610",0226170119899,,-4699.0,-4699.0,,,not_found
44acb1ff-18e7-40de-822e-c7f32ad504e4-00004f69,PayPal Payments Private Limited,Sundry Creditors,"Quadrant B, Plot No C-22, G-Block, 3Rd Floor, The Il And Fs Financial Centre, Bandra, Kurla Complex, Bandra East, Mumbai",,,6568.09,7221.09,,,not_found
44acb1ff-18e7-40de-822e-c7f32ad504e4-000021a5,Paytm,Sundry Creditors,,,,0.0,0.0,,,not_found
44acb1ff-18e7-40de-822e-c7f32ad504e4-00002325,Penalty Income,Sundry Creditors,,,,0.0,0.0,,,not_found
44acb1ff-18e7-40de-822e-c7f32ad504e4-00005169,PEP TECHNOLOGIES PRIVATE LIMITED,Sundry Creditors,,,,0.0,0.0,,,not_found
44acb1ff-18e7-40de-822e-c7f32ad504e4-00003461,Perfect Air Cool Services,Sundry Creditors,"Gal No.704,Walmiki Nagar Home Guard Himalaya Societ, Ghatkoper West Mumbai 400086",,,0.0,0.0,,,not_found
44acb1ff-18e7-40de-822e-c7f32ad504e4-00008481,Perfect Touch Automobile Service,Sundry Creditors,"Jai Sai Anand Apt., Madvi Compound, Nr Little Flower School, Rainart Tower, Shashtri Nagar, Thane - 400606",,,0.0,-4500.0,,,not_found
44acb1ff-18e7-40de-822e-c7f32ad504e4-00003cb6,Pixel Incorporation,Sundry Creditors,"K.No -3160, Huda Plot, Near Millenium School, Sector-57, Gurugram, Haryana, 122002",,,0.0,0.0,,,not_found
44acb1ff-18e7-40de-822e-c7f32ad504e4-000020c5,Place India Services,Sundry Creditors,"17/1, Paranjpe,Udyog Bhavan, Above Khandelwal Sweet Mart, Opp. Rly. Station., Thane 400601",65276665,placeindia12@gmail.com,0.0,0.0,,,not_found
44acb1ff-18e7-40de-822e-c7f32ad504e4-00003bf7,Plus Enterprises,Sundry Creditors,"Wb-10/11, Renaissance, Logistics Park, Near Vii, Padgha, Off Nh3, Taluka Bhiwandi, District Thane, Maharashtra 421302",,,0.0,0.0,,,not_found
44acb1ff-18e7-40de-822e-c7f32ad504e4-000017db,Polyset Plastics Pvt. Ltd.,Sundry Creditors,"Mr., Plt No.161,Amalia, Behind Cricket Play Ground, Dabhel, Nani Daman -396210",,,0.0,0.0,,,not_found
44acb1ff-18e7-40de-822e-c7f32ad504e4-00003c1d,PorlobTechnologies Pvt Ltd,Sundry Creditors,"Plot No: A-59, Road No.10, Opp Bosch Car Service, Wagle Estate Thane West, Maharashtra 400604",8652321521,,0.0,0.0,,,not_found
44acb1ff-18e7-40de-822e-c7f32ad504e4-0000374c,Positive E Sales,Sundry Creditors,"Anjaneya Infrastructure Project No.38 & 39, Soukya Road, Kacherakanahalli, Hoskote Taluka, Bangalore Rural District, Bangalore, Karnataka, 560067",,,0.0,0.0,,,not_found
44acb1ff-18e7-40de-822e-c7f32ad504e4-00003c8c,Pragati Stationery & Xerox,Sundry Creditors,"Shop No 5A, Asad Compound Behind Choice Bakers, Near Airport Road, Metro Station, Marol Pipe Line, A K Road, Andheri West, Mumbai - 400059",02228230566,pragatistationery111@gmail.com,0.0,0.0,,,not_found
44acb1ff-18e7-40de-822e-c7f32ad504e4-00001849,Pratik Honda,Sundry Creditors,"Plot No. 27, Sector - 28, Vashi, Navi Mumbai - 400705",022278784232425,pratikhonda@hotmail.com,0.0,0.0,,,not_found
44acb1ff-18e7-40de-822e-c7f32ad504e4-00003c5c,Pravin Jewellers,Sundry Creditors,"Gleshiya Shop No.2 Jain Mandir Road Thembhi Naka, Thane",,,0.0,0.0,,,not_found
44acb1ff-18e7-40de-822e-c7f32ad504e4-00003402,Praxis Home Retail Limited,Sundry Creditors,"T2,R Mall 3Rd Floor Ghod Bunder Road, Chitalsar Manpada Thane",,babasaheb.ujedkar@futurertail.in,0.0,0.0,,,not_found
44acb1ff-18e7-40de-822e-c7f32ad504e4-00005e25,Prince Graphics Private Limited,Sundry Creditors,"Unit No. 22 - 24, Keytuo Industrial Estate, Near Pidilite, Industries,M.I.D.C., Andheri East, Mumbai - 400 059, Nitin@Princegraphics.In",2832222228327777,billing@princegraphics.in,0.0,0.0,,,not_found
44acb1ff-18e7-40de-822e-c7f32ad504e4-00001401,Prince Infotech,Sundry Creditors,"Mr., A 5/ 001, Prathamesh Bldg, Sec - 2 , Shanti Nagar, Opp Reliance Fresh, Mira Road - ( East ), Mumbai - 401 107, Ph No.: 022-28111636, Mob No.: 9820197205",02228111636,info@infowantechnologies.com,0.0,0.0,,,not_found
44acb1ff-18e7-40de-822e-c7f32ad504e4-00003e02,Prism It Solutions Pvt Ltd,Sundry Creditors,,,,0.0,0.0,,,not_found
44acb1ff-18e7-40de-822e-c7f32ad504e4-00004141,Priyanka Dubey,Sundry Creditors,"Room No.:- 3, Pardesi Chawl, Dargh Road, Prakash Nagar, Bhandup West 400078",7506791709,priyankadubey0610@gmail.com,0.0,0.0,,,not_found
44acb1ff-18e7-40de-822e-c7f32ad504e4-00008610,Priya Tiwari,Sundry Creditors,,,,0.0,0.0,,,not_found
44acb1ff-18e7-40de-822e-c7f32ad504e4-00008409,Professional Digisign Private Limited,Sundry Creditors,"238, 2Nd Floor, Patil Plaza, Swagate, Pune - 411009",,info@prodigisign.com,0.0,890.0,,,not_found
44acb1ff-18e7-40de-822e-c7f32ad504e4-00004531,Protean eGov Technologies Limited,Sundry Creditors,,,,0.0,0.0,,,not_found
44acb1ff-18e7-40de-822e-c7f32ad504e4-00003b9b,Prushti Fashion,Sundry Creditors,"Shop No 4 Bajarang Decor Vrundavan Soc. Nr, Savaliya Circle Yogichowck Surat 395010",,,0.0,0.0,,,not_found
44acb1ff-18e7-40de-822e-c7f32ad504e4-0000271f,PSK Job Consultancy,Sundry Creditors,"Office No. 7/2, Sai Prasnna Apartment, Chinchpada Kalyan (E)-421306",7039997630,pskjob1993@gmail.com,0.0,0.0,,,not_found
44acb1ff-18e7-40de-822e-c7f32ad504e4-00003d49,Punamiya Jewellers,Sundry Creditors,"Gavand Building, Shop No 2, Opp Kopineshwar Mahadev Temple, Station Road, Thane West - 400601",0222533431967922889,,0.0,0.0,,,not_found
44acb1ff-18e7-40de-822e-c7f32ad504e4-00008650,Punam Suraj Tambe,Sundry Creditors,,,,0.0,0.0,,,not_found
44acb1ff-18e7-40de-822e-c7f32ad504e4-000081a1,PURE SOURCE INDIA,Sundry Creditors,,,,0.0,0.0,,,not_found
44acb1ff-18e7-40de-822e-c7f32ad504e4-000032f3,Quikr India Pvt Ltd,Sundry Creditors,"Mr., Gunta No. 106, Sub No. 5, 6, 7, 8 9, Rachenahalli, (No. 167, Dr. S.R.K. Nagar Post), Krishnarajapuram Hobli, Bangalore ? 560045",,contact@quikr.com,0.0,0.0,,,not_found
44acb1ff-18e7-40de-822e-c7f32ad504e4-0000840d,Radhai Inksap School,Sundry Creditors,"Sector 36, Kamothe, Mumbai - 410206",,radhaiinksap2024@gmail.com,0.0,0.0,,,not_found
44acb1ff-18e7-40de-822e-c7f32ad504e4-00003d68,Radha Madhav Trading,Sundry Creditors,"Gf-13, Balaji Center, Opp. Swaminarayan, Mandir, Gurukul Road, Ahmedabad, Gujarat, 380052",,,0.0,0.0,,,not_found
44acb1ff-18e7-40de-822e-c7f32ad504e4-00003a90,Radhe Radhe Traders,Sundry Creditors,"X-132/1 Gali No.11 Brahm Puri Near Shiv Mandir, New Delhi-110053",,,0.0,0.0,,,not_found
44acb1ff-18e7-40de-822e-c7f32ad504e4-000085e5,Rahul Sharma,Sundry Creditors,,,,0.0,-20000.0,,,not_found
44acb1ff-18e7-40de-822e-c7f32ad504e4-00000ac3,Rajendra V. Patil,Sundry Creditors,"Shop-13, Kohinoor Associates Bldg, S.T.Road, Chambur Naka, Mumbai-400071",02225351169,vhaweld@indiatimes.com,0.0,0.0,,,not_found
44acb1ff-18e7-40de-822e-c7f32ad504e4-00008410,Rajesh Kasat,Sundry Creditors,,,,0.0,0.0,,,not_found
44acb1ff-18e7-40de-822e-c7f32ad504e4-000056e9,Rajesh Kumar Deora,Sundry Creditors,,,,0.0,0.0,,,not_found
44acb1ff-18e7-40de-822e-c7f32ad504e4-0000156b,Rajesh Mandavewala,Sundry Creditors,Kolkata,,,0.0,0.0,,,not_found
44acb1ff-18e7-40de-822e-c7f32ad504e4-000031fd,Rajvilas Vilas Hawamahal Chs Ltd,Sundry Creditors,,,,0.0,0.0,,,not_found
44acb1ff-18e7-40de-822e-c7f32ad504e4-0000389c,Rakesh Bholanath Gupta,Sundry Creditors,,,,0.0,0.0,,,not_found
44acb1ff-18e7-40de-822e-c7f32ad504e4-00003063,Rakesh Gandhi,Sundry Creditors,"B-202, Jay Shripal Bldg-3, Devchandnagar Road, Bhayandar West -401101",,rakeshbhaigandhi@gmail.com,0.0,0.0,,,not_found
44acb1ff-18e7-40de-822e-c7f32ad504e4-000038fc,Rakesh Ramesh Chauhan,Sundry Creditors,,,,0.0,0.0,,,not_found
44acb1ff-18e7-40de-822e-c7f32ad504e4-00004184,Rameshwar,Sundry Creditors,"Plot-903, 2Nd Floor New G.I.D.C, Katargam, Surat, Plot-903, 2Nd Floor New G.I.D.C, Katargam, Surat, Gujarat, 395004",,,0.0,0.0,,,not_found
44acb1ff-18e7-40de-822e-c7f32ad504e4-00003f87,Ranjeeta Sharma,Sundry Creditors,,,,0.0,0.0,,,not_found
44acb1ff-18e7-40de-822e-c7f32ad504e4-0000399a,Ranka Jewellers LLP,Sundry Creditors,"Yashwardhan Apartment Ram Maruti Road Thane, (W) 400602",2538392342694298,,0.0,0.0,,,not_found
44acb1ff-18e7-40de-822e-c7f32ad504e4-00008197,RAYMOND LIFESTYLE LIMITED,Sundry Creditors,,,,9192.9,11006.9,,,not_found
44acb1ff-18e7-40de-822e-c7f32ad504e4-000056c8,Raymond Limited,Sundry Creditors,"Jekegram,Pokharan Road No.1, Jk Gram,Thane- 400606",,,0.0,0.0,,,not_found
44acb1ff-18e7-40de-822e-c7f32ad504e4-00003af1,Recreate Engineering Products Pvt Ltd,Sundry Creditors,"Plot No - 42 And 43, Arrjavv Industrial And, Warehouse Park, Dankuni Near Coal India Complex, Hooghly, West Bengal",,,0.0,0.0,,,not_found
44acb1ff-18e7-40de-822e-c7f32ad504e4-00008398,Red Dot Events,Sundry Creditors,,,,0.0,0.0,,,not_found
44acb1ff-18e7-40de-822e-c7f32ad504e4-00001060,Reliance Communications Limited,Sundry Creditors,"H Block, 1St Floor, Dhirubjai Ambani Knowledge City, Navi Mumbai - 400710",,,0.0,0.0,,,not_found
44acb1ff-18e7-40de-822e-c7f32ad504e4-00003be1,Reliance General Insurance,Sundry Creditors,"2Nd Floor,Sai Infotech, Office .No-210 211, Opp., Ghatkoparstation, Patel Chowk, Ghatkopar East Mumba",0224890300918003009,mayur02031@gmail.com,0.0,0.0,,,not_found
44acb1ff-18e7-40de-822e-c7f32ad504e4-00002c79,Reliance Jio Infocomm Ltd,Sundry Creditors,"Reliance Corporate Park 1,5 Ttc Ind.Area, Thane Belapur Road,Ghansoli Navi, Mumbai - Maharashtra",,,-34153.08,-85131.38,,,not_found
44acb1ff-18e7-40de-822e-c7f32ad504e4-00003a58,Reliance Money,Sundry Creditors,,,,0.0,0.0,,,not_found
44acb1ff-18e7-40de-822e-c7f32ad504e4-00003fd5,Reliance Retail Limited (HR),Sundry Creditors,,,,0.0,0.0,,,not_found
44acb1ff-18e7-40de-822e-c7f32ad504e4-00003fd6,Reliance Retail Ltd,Sundry Creditors,,,,0.0,0.0,,,not_found
44acb1ff-18e7-40de-822e-c7f32ad504e4-00000aea,Renu Devi Murarka,Sundry Creditors,,,,-4200.0,-6300.0,,,not_found
44acb1ff-18e7-40de-822e-c7f32ad504e4-000037c2,Repairs and Maintenance Payable,Sundry Creditors,,,,0.0,0.0,,,not_found
44acb1ff-18e7-40de-822e-c7f32ad504e4-0000516e,RETAILEZ PRIVATE LIMITED,Sundry Creditors,,,,3207.0,3207.0,,,not_found
44acb1ff-18e7-40de-822e-c7f32ad504e4-00003550,RH Mart,Sundry Creditors,"Wh - 10, Crystal Indus Logistics Park, Bhayla, Ahmedabad, Gujarat, 382220",,,0.0,0.0,,,not_found
44acb1ff-18e7-40de-822e-c7f32ad504e4-00008160,RICHES JEWEL ARCADE LLP,Sundry Creditors,,,,0.0,0.0,,,not_found
44acb1ff-18e7-40de-822e-c7f32ad504e4-0000840e,Rishi Karwa,Sundry Creditors,,,,0.0,1048.0,,,not_found
44acb1ff-18e7-40de-822e-c7f32ad504e4-00005206,Rj INFOTECH,Sundry Creditors,"Shop No 02 Guru Prerana Building Naikwadi, Shivaji Path Opp Dr Bhanushali Hospital",,,0.0,0.0,,,not_found
44acb1ff-18e7-40de-822e-c7f32ad504e4-00001382,R. J. Jha,Sundry Creditors,"Old Barrack T -337, Room No 4, Chembur Colony ,Behind, Madhumati Soap, Mumbai - 400074",,,0.0,0.0,,,not_found
44acb1ff-18e7-40de-822e-c7f32ad504e4-0000516f,RK WORLDINFOCOM PRIVATE LIMITED,Sundry Creditors,,,,518.0,518.0,,,not_found
44acb1ff-18e7-40de-822e-c7f32ad504e4-00003c2a,Rohit Bichchhelal Gupta,Sundry Creditors,"Siddhivinayak Chawl Ss Kari Flour Mill, Manoramanagar Thane West",,,0.0,0.0,,,not_found
44acb1ff-18e7-40de-822e-c7f32ad504e4-00002648,Rotary Club of Ulhasnagar Midtown,Sundry Creditors,"Midtown Rotary Park, Gol Maidan, Ulhasnagar-421001",,rculhasnagar.midown@gmail.com,0.0,0.0,,,not_found
44acb1ff-18e7-40de-822e-c7f32ad504e4-0000603d,Royal Arts,Sundry Creditors,"Motlibai Wadia Building, Shop No-1, S Abrelvi Road, Mumbai, Maharashtra, 400001",,,0.0,0.0,,,not_found
44acb1ff-18e7-40de-822e-c7f32ad504e4-000041f8,Royal Florist,Sundry Creditors,"Royal Challenge Complex, Yasodham Shopping Centre, Filmcity Road, Goregaon (E), Mumbai - 400 063.",,,0.0,0.0,,,not_found
44acb1ff-18e7-40de-822e-c7f32ad504e4-00003876,Royal Sundaram General Insurance Co.Ltd,Sundry Creditors,,,,-12428.94,-12428.94,,,not_found
44acb1ff-18e7-40de-822e-c7f32ad504e4-000081fe,RUDRA TRADERS,Sundry Creditors,,,,0.0,0.0,,,not_found
44acb1ff-18e7-40de-822e-c7f32ad504e4-00003e30,Sagar Computers,Sundry Creditors,"65, Swaminaicken St, Near Chintadripet Post Office, Chintadaripet Chennai, Tamil Nadu, 600002",,,0.0,0.0,,,not_found
44acb1ff-18e7-40de-822e-c7f32ad504e4-000034fd,Sagar Enterprise,Sundry Creditors,"Shop No 13A Grd Flr A Raj Darshan Soc Near Railway, Plateformno1 Dada Patil Wadi Thane Maharashtra",02225420031,shreemahavircourier@gmail.com,11792.81,11792.81,,,not_found
44acb1ff-18e7-40de-822e-c7f32ad504e4-00001bae,Sahaj Enterprises,Sundry Creditors,"Mr., S.No.90/3, 12 Th Main, Begur Road Cross, Hongasandra, Banglore, Karnataka -560068",08065582559,accounts@sahajindia.net,0.0,0.0,,,not_found
44acb1ff-18e7-40de-822e-c7f32ad504e4-00002209,Sai Kiran Infotech,Sundry Creditors,"A Wing, G-006, Gaom Devi Mandir, Near Kasturi Hospital, Thane - 401101",9820150809,kirankapoor72@gmail.com,-300.0,-300.0,,,not_found
44acb1ff-18e7-40de-822e-c7f32ad504e4-00004e26,Sai Krupa Caterers,Sundry Creditors,"Jyoti Co-Op Housing Society, Plot No.42, Veer Savarkar Nagar, Opp. Denez Compund, Thane(W)-400606",,,0.0,0.0,,,not_found
44acb1ff-18e7-40de-822e-c7f32ad504e4-00001c99,Sai Point Automobiles Pvt.Ltd.,Sundry Creditors,"Patil House Gokul Nagarnr.Jari Mari Mandir, Castle Mill Gokul Nagar Thane",0224151850041518501,service.castlemill@saipoint.com,0.0,0.0,,,not_found
44acb1ff-18e7-40de-822e-c7f32ad504e4-000081e8,SAITECH IT PRIVATE LIMITED,Sundry Creditors,,,,0.0,0.0,,,not_found
44acb1ff-18e7-40de-822e-c7f32ad504e4-00001b36,Samadhan Plus,Sundry Creditors,"101/B, Nehru Residency, Nehru Colony, Gandhi Road, Thatipur, Gwalier 474011",,tally.developer@samadhanplus.com,0.0,0.0,,,not_found
44acb1ff-18e7-40de-822e-c7f32ad504e4-00003a8d,Samarth Tyres,Sundry Creditors,"Shop No 9, Rajanigandha Society, Lbs Marg, Next To Vandana Bus Depot, Thane West - 400601",,,0.0,0.0,,,not_found
44acb1ff-18e7-40de-822e-c7f32ad504e4-00003130,Sandeep Gandhi & Co. (Andheri),Sundry Creditors,"3, Vasant Vihar , 17, New Nagardas X Road, Andheri East, Mumbai - 400069",,gandhiin@vsnl.com,0.0,0.0,,,not_found
44acb1ff-18e7-40de-822e-c7f32ad504e4-00003cc3,San Distributions,Sundry Creditors,"Block No.108 Indira Arcade Gandhi Chowk Road Sadar, Nagpur-440001",7972865081,sandistribtions@gmail.com,0.0,0.0,,,not_found
44acb1ff-18e7-40de-822e-c7f32ad504e4-0000399b,Sanjari Telecom,Sundry Creditors,Near Auliya Masjid Thane,7021517171,,0.0,0.0,,,not_found
44acb1ff-18e7-40de-822e-c7f32ad504e4-00003b0e,Sanket Chauhan & Associates,Sundry Creditors,,9833341840,sanketchauhan1109@gmail.com,0.0,0.0,,,not_found
44acb1ff-18e7-40de-822e-c7f32ad504e4-00008021,Santech Digital Solutions,Sundry Creditors,,,,0.0,0.0,,,not_found
44acb1ff-18e7-40de-822e-c7f32ad504e4-00001d7e,Saraf Computers,Sundry Creditors,"Mr., Shop No.89, Cellar Chenoy Trade, Centre 116, Parklane, Secunderabad - 500 003",,,0.0,0.0,,,not_found
44acb1ff-18e7-40de-822e-c7f32ad504e4-00005796,SARAH INTERNATIONAL,Sundry Creditors,,,,0.0,0.0,,,not_found
44acb1ff-18e7-40de-822e-c7f32ad504e4-00003fd8,SARF COMMUNICATION PRIVATE LIMITED,Sundry Creditors,,,,0.0,0.0,,,not_found
44acb1ff-18e7-40de-822e-c7f32ad504e4-000081ad,SAVEX TECHNOLOGIES PRIVATE LIMITED,Sundry Creditors,,,,0.0,0.0,,,not_found
44acb1ff-18e7-40de-822e-c7f32ad504e4-00008651,Savita Sudhakar Jadhav,Sundry Creditors,,,,0.0,0.0,,,not_found
44acb1ff-18e7-40de-822e-c7f32ad504e4-0000570d,SBM BANK (INDIA) LIMITED,Sundry Creditors,,,,0.0,0.0,,,not_found
44acb1ff-18e7-40de-822e-c7f32ad504e4-00003a72,Sehra Plastics (Cr),Sundry Creditors,,,,0.0,0.0,,,not_found
44acb1ff-18e7-40de-822e-c7f32ad504e4-000030d1,Select Job Private Limited,Sundry Creditors,"Gala No 106 , Grd Flr , Shah Nahar Industrial Estate , Dr E Moses Road , Behind Toyoto Showroom , Worli , Mumbai 400018",,,0.0,0.0,,,not_found
44acb1ff-18e7-40de-822e-c7f32ad504e4-00001479,Serve Infotech,Sundry Creditors,"4 Bha 5 Near Unique Arawali, Jawahar Nagar, Jaipur, Rajasthan, India-302004",,sales [sales@serveinfotech.net],0.0,0.0,,,not_found
44acb1ff-18e7-40de-822e-c7f32ad504e4-000042ed,Shailaja C,Sundry Creditors,"Type A/801 North Block Donimalai (F), D T Ship, Sandur Bellary, Karnataka -583118",,,0.0,0.0,,,not_found
44acb1ff-18e7-40de-822e-c7f32ad504e4-000043bb,SHAISTA MUSHTAQ,Sundry Creditors,,,,0.0,0.0,,,not_found
44acb1ff-18e7-40de-822e-c7f32ad504e4-00000b69,Shakti Enterprises,Sundry Creditors,"Santi Market, Churi Market, Mukathar Toli, Kadamkuan, Patna - 800003",061232945583254036,tally.patna@yahoo.com;roshan@tally.net.in,0.0,0.0,,,not_found
44acb1ff-18e7-40de-822e-c7f32ad504e4-0000374f,Shakti Infotech Private Limited(Cr),Sundry Creditors,"304, Samridhi Complex, S.P. Verma Road, Patna ? 800001",,,157992.0,157992.0,,,not_found
44acb1ff-18e7-40de-822e-c7f32ad504e4-00004004,Shakti Traders (BR),Sundry Creditors,"Pankaj Lok Market Laxmi Naryan Road, Mazzafarpur",9334104152,,0.0,0.0,,,not_found
44acb1ff-18e7-40de-822e-c7f32ad504e4-00008412,Shankar Achari,Sundry Creditors,,,,0.0,1048.0,,,not_found
44acb1ff-18e7-40de-822e-c7f32ad504e4-00003c32,Shark Enterprises,Sundry Creditors,"Shop No.03 Deep Nagar,Vpo-Sohana, Sec-78, Mohali, Sas Nagar",,,0.0,0.0,,,not_found
44acb1ff-18e7-40de-822e-c7f32ad504e4-00000b75,Sharwan Kumar Dudhani,Sundry Creditors,,,,0.0,0.0,,,not_found
44acb1ff-18e7-40de-822e-c7f32ad504e4-00005e1a,Shezad Sound System,Sundry Creditors,,,,0.0,0.0,,,not_found
44acb1ff-18e7-40de-822e-c7f32ad504e4-00002888,Shilpa Kataria,Sundry Creditors,,,,0.0,0.0,,,not_found
44acb1ff-18e7-40de-822e-c7f32ad504e4-00003f61,Shiva Devraj behra,Sundry Creditors,Thane West,,,0.0,0.0,,,not_found
44acb1ff-18e7-40de-822e-c7f32ad504e4-00003dc5,Shivam Singh,Sundry Creditors,"Ward - 3, Door No.284 285, Rajagir Road, --- Kerala, Kalamassery 683104",,,-25000.0,-25000.0,,,not_found
44acb1ff-18e7-40de-822e-c7f32ad504e4-000036b1,Shiv Shakti Telecom,Sundry Creditors,"Shop No.3 Kundan Bulding Kapur Wadi Naka, Kolsheth Road Thane (W)",,,0.0,0.0,,,not_found
44acb1ff-18e7-40de-822e-c7f32ad504e4-00003ae8,Shoppers Stop Ltd,Sundry Creditors,"Vivana Mall, Thane-4000606",18004196648,,1499.99,1499.99,,,not_found
44acb1ff-18e7-40de-822e-c7f32ad504e4-0000354d,ShoppingSeries,Sundry Creditors,"290, Second Floor, A 3 Block, Pashchim Vihar, Delhi, Delhi, 110063",,,0.0,0.0,,,not_found
44acb1ff-18e7-40de-822e-c7f32ad504e4-00003da1,Shrawan Kumar,Sundry Creditors,,,,0.0,0.0,,,not_found
44acb1ff-18e7-40de-822e-c7f32ad504e4-00004182,Shree Dhanwantri Herbals,Sundry Creditors,"Shree Dhanwantri Herbals, Vill. Naag Kalan, Majitha Road, Amritsar, Punjab, 143601",,,0.0,0.0,,,not_found
44acb1ff-18e7-40de-822e-c7f32ad504e4-00003cb9,Shree Enterprise ( Cr ),Sundry Creditors,"2 B 30, Avdhut Nagar Society, Near Chikuwadi, Katargam Road, Surat, Surat, Gujarat, 395004",,,0.0,0.0,,,not_found
44acb1ff-18e7-40de-822e-c7f32ad504e4-00003a74,Shree Ganesh Electricals (Cr),Sundry Creditors,,,,0.0,0.0,,,not_found
44acb1ff-18e7-40de-822e-c7f32ad504e4-00001271,Shree Info,Sundry Creditors,"Shhad Gavthan, Opp Century Reyon Staf Gate, Near Madhur Medicals, Shahad(E), Kalyan - 421301",,shreeinfoky@rediffmail.com,0.0,0.0,,,not_found
44acb1ff-18e7-40de-822e-c7f32ad504e4-00003ca3,Shree Jewellers,Sundry Creditors,"70 Zaveri Bazar Shop No 1, Ground Floor Mumabi 400002",0222240483922404840,,0.0,0.0,,,not_found
44acb1ff-18e7-40de-822e-c7f32ad504e4-00003670,Shree Maruti Electronics,Sundry Creditors,"203, Namdhari Chamber, Desh Bandhu Gupta Road, Karol Bagh, New Delhi, Delhi - 110005",,,0.0,0.0,,,not_found
44acb1ff-18e7-40de-822e-c7f32ad504e4-00001be7,Shree National Umbrella Mart,Sundry Creditors,"Sho No. 12-B 13, Anand Bhavan, 17 New Hanuman Lane, Princess Street, Mumbai 400002",0222201882522050393,,0.0,0.0,,,not_found
44acb1ff-18e7-40de-822e-c7f32ad504e4-0000830b,Shree Samarth Sevak Mandal Thane,Sundry Creditors,,,,0.0,0.0,,,not_found
44acb1ff-18e7-40de-822e-c7f32ad504e4-00006017,Shree Shakambari Sewa Trust,Sundry Creditors,"43-B, Jatindra Mohan Avenue, Kolkata 700005",,,0.0,0.0,,,not_found
44acb1ff-18e7-40de-822e-c7f32ad504e4-00002253,Shreesudhnirta Enterprises,Sundry Creditors,"Ms. Sarika/ Mr. Manish, 103, D Wing, Sea Ward Dev Pvt Ltd, Prestige Garden, Panvel 410206",,findjobsm1715@gmail.com,0.0,0.0,,,not_found
44acb1ff-18e7-40de-822e-c7f32ad504e4-000085ab,Shree Swami Samarth General Store,Sundry Creditors,"Road No 27, Wagale Estate, Thane",,,0.0,0.0,,,not_found
44acb1ff-18e7-40de-822e-c7f32ad504e4-00003b2a,Shree Vardhaman Hall,Sundry Creditors,"20.21 Vardhaman Complex Gokul Nagar, Old Agra Road Thane",02221721470,,0.0,0.0,,,not_found
44acb1ff-18e7-40de-822e-c7f32ad504e4-0000335c,Shreya International,Sundry Creditors,"Mr, Plot No-G-1058 , Gidc , Lodhika Estate , Post Metoda - 360021",,,0.0,0.0,,,not_found
44acb1ff-18e7-40de-822e-c7f32ad504e4-000041b1,Shreyash Retail Private Limited,Sundry Creditors,"Marasandra And Madnahatti -Venkatapura Villages, Kasaba Hobli, Malur Taluk ,Dist -Kolar, Malur, Bangalore,Karnataka, India - 563130",,,0.0,0.0,,,not_found
44acb1ff-18e7-40de-822e-c7f32ad504e4-00003aa7,Shreyash Retail Pvt Ltd,Sundry Creditors,"A-285 Main Bhisham Pitamaha Marg Defence Colony, 1St Floor 2Nd Landing New Delhi",18001238783,,0.0,0.0,,,not_found
44acb1ff-18e7-40de-822e-c7f32ad504e4-00004097,Shri Nivas Kumar,Sundry Creditors,"Flower Valley, Thane",,,-10000.0,-10000.0,,,not_found
44acb1ff-18e7-40de-822e-c7f32ad504e4-0000545d,Shri Radhe Krishna Consultancy,Sundry Creditors,"Opp. Giri Apartment, East Lohanipur, Patna, Patna, Bihar, 800003",,,106054.7,-33375.3,,,not_found
44acb1ff-18e7-40de-822e-c7f32ad504e4-0000830c,Shri Samarth Sevak Mandal Thane,Sundry Creditors,"Ground Floor, Samartha Mandir, Bahiramji Bhikaji Road, Saint John School, Thane, Maharashtra, 400601",,,0.0,0.0,,,not_found
44acb1ff-18e7-40de-822e-c7f32ad504e4-0000832e,Shruti Zanzad,Sundry Creditors,,,,-950.0,-950.0,,,not_found
44acb1ff-18e7-40de-822e-c7f32ad504e4-00008414,Shubham Mehta,Sundry Creditors,,,,0.0,0.0,,,not_found
44acb1ff-18e7-40de-822e-c7f32ad504e4-0000177b,Sigma Manpower Services (Mumbai),Sundry Creditors,"Mr., Paranjape Udyog Bhavan , 1St Floor, Above Khandelwal Sweet, Opp Post Office, Thane (W), Tel No. 25303076/8286274484, Email Id Thanesigma@Yahoo.Com",25303076,thanesigma@yahoo.com,0.0,0.0,,,not_found
44acb1ff-18e7-40de-822e-c7f32ad504e4-000029ea,Silicon Rental Solution Pvt Ltd,Sundry Creditors,"Mr, Corp.Off No5 Mohini Hights, 5Th Road Behind S.V. Raod, Khar(W) Mumbai-400052",0223295832526051930,sanjay@silicongroup1.com,0.0,0.0,,,not_found
44acb1ff-18e7-40de-822e-c7f32ad504e4-00004186,Simplex Solutions,Sundry Creditors,"Shop No: 10 5 9 215 B Ff 10, 1St Floor, D.No:, 5-9-215, B Block, Chirag Ali Lane, Abids, Hyderabad, Telangana, 500001",,,0.0,0.0,,,not_found
44acb1ff-18e7-40de-822e-c7f32ad504e4-00003200,Singer India Limited,Sundry Creditors,"Khasara Number 26 27, Kapasedha Extension, Behind Fun Food Village, 110037",,,0.0,0.0,,,not_found
44acb1ff-18e7-40de-822e-c7f32ad504e4-00003bb3,Singhal Traders,Sundry Creditors,"Singhal Traders72/27, Patel Marg, Mansaroverjaipur,Rajasthan-302020",,,0.0,0.0,,,not_found
44acb1ff-18e7-40de-822e-c7f32ad504e4-00003fd3,SIVAASREE TEX,Sundry Creditors,,,,0.0,0.0,,,not_found
44acb1ff-18e7-40de-822e-c7f32ad504e4-00002d4d,Siyaram Silk Mills Ltd(Korum Mall),Sundry Creditors,"Mr., Unit No-S-16 1St Floor, Korum Mall, Thane, Con No-022-49718592",02249718592,,0.0,0.0,,,not_found
44acb1ff-18e7-40de-822e-c7f32ad504e4-00003b1b,S K Cards Technologies,Sundry Creditors,Indira Nagar Iit Market Powai Mumbai,,skcards001@gmail.com,0.0,0.0,,,not_found
44acb1ff-18e7-40de-822e-c7f32ad504e4-00003bc5,S K Enterprise(Cr),Sundry Creditors,"Sf 1, Sundaram Complex (Second Floor), Opp: Astmangal Mahadev Mandir, Science City Road, Sola, Ahmedabad 380060",9409246434,,0.0,0.0,,,not_found
44acb1ff-18e7-40de-822e-c7f32ad504e4-00003746,Skymart India,Sundry Creditors,"Building Nos. 1 2, Agsons Global Logistics, Park, Vill. Kishora, Main Gt Road, Opp. Tau, Devilal Park, Sonipat, Haryana, 131021",,,0.0,0.0,,,not_found
44acb1ff-18e7-40de-822e-c7f32ad504e4-000081ec,SLEEPYHEAD HOME DECOR PRIVATE LIMITED,Sundry Creditors,,,,0.0,0.0,,,not_found
44acb1ff-18e7-40de-822e-c7f32ad504e4-00003cb7,S M Enterprises ( Cr.),Sundry Creditors,"Shop No-03,Navdurga Towers, Plot 27, Sec-18,Kamothe Navi Mumbai, Maharashtra, 410209",,,0.0,0.0,,,not_found
44acb1ff-18e7-40de-822e-c7f32ad504e4-000081fa,SMRUTI EXIM PRIVATE LIMITED,Sundry Creditors,,,,0.0,0.0,,,not_found
44acb1ff-18e7-40de-822e-c7f32ad504e4-00002f13,Sociotantra Business Solutions,Sundry Creditors,"Mr., 1St Flr Tiffany, Hiranandani Estate, Ghodbunder Road, Thane West-400607",,,0.0,0.0,,,not_found
44acb1ff-18e7-40de-822e-c7f32ad504e4-00003d90,Softaz Erp Solutions LLP,Sundry Creditors,"#432, 2Nd Floor, 4Th Cross, 2Nd Block, Hrbr Layout , Kalyan Nagar, Bangalore",,connect@softazerp.com,0.0,0.0,,,not_found
44acb1ff-18e7-40de-822e-c7f32ad504e4-000028b3,Sonia Chugh,Sundry Creditors,"27B/66, Industrial Area, Hr In",,,0.0,0.0,,,not_found
44acb1ff-18e7-40de-822e-c7f32ad504e4-00005f81,SONY INFO SOLUTIONS,Sundry Creditors,"K-5, Chandi Vaypar Bhawan, Exhibition Road, Patna-800001",9334141915,sonyinfosolutions@gmail.com,0.0,0.0,,,not_found
44acb1ff-18e7-40de-822e-c7f32ad504e4-000036ac,Sound And Shadow India,Sundry Creditors,"183/2 , Lenin Sarani , 1St Floor, Near Tipu Sultan Masjid, Kolkata West Bengal - 700013",,,0.0,0.0,,,not_found
44acb1ff-18e7-40de-822e-c7f32ad504e4-00002286,SpaceEdge Technology,Sundry Creditors,"Mobile No.:- 9871034010, Email Id:- Smsdelhincr@Gmail.Com",,smsdelhincr@gmail.com,0.0,0.0,,,not_found
44acb1ff-18e7-40de-822e-c7f32ad504e4-000032de,S P Advisors,Sundry Creditors,"B-410, Bsel Tech Park, Sector-30 A, Opp. Vashi Railway Station, Vashi, Navi Mumbai-400705",,,-19000.0,-19000.0,,,not_found
44acb1ff-18e7-40de-822e-c7f32ad504e4-00003980,Span Solutions,Sundry Creditors,"24/E, Vasanwadi, 413, Kalabadevi Road, Mumbai - 400002",0226634224422064515,info@span.co,0.0,0.0,,,not_found
44acb1ff-18e7-40de-822e-c7f32ad504e4-00003ca7,Span Systems,Sundry Creditors,"Mr. Mehul / Mr. Chirag, 24/E, Vasantwadi, 413 Kalbadevi Road, Mumbai 400002",,,0.0,0.0,,,not_found
44acb1ff-18e7-40de-822e-c7f32ad504e4-0000147e,Sparsh Infosolutions,Sundry Creditors,"Ajit Agarwal, A3/3, Gangotri House, South Park, Bistupur, Jamshedpur ? 831001",916572317015,ajit@sparshinfosol.com,0.0,0.0,,,not_found
44acb1ff-18e7-40de-822e-c7f32ad504e4-00003aa1,SpiceJet Limited,Sundry Creditors,"Domestic Terminal, Terminal�1, Domestic Terminal, Chhatrapati, Shivaji International Airport , Vile Parle East, Mumbai�400099",,custrelations@spicejet.com,0.0,0.0,,,not_found
44acb1ff-18e7-40de-822e-c7f32ad504e4-0000451f,Spice Jet Ltd (Bihar),Sundry Creditors,"H.No 299, Mehta Colony, Sandalpur Road, Kumhrar Gumti Ps Bahadurpur, Mahendru, Patna, Bihar, 800006",,,0.0,0.0,,,not_found
44acb1ff-18e7-40de-822e-c7f32ad504e4-00003fde,Spicejet  Ltd (Tamilnadu),Sundry Creditors,,,,0.0,0.0,,,not_found
44acb1ff-18e7-40de-822e-c7f32ad504e4-0000818d,SPIGEN INDIA PRIVATE LIMITED,Sundry Creditors,,,,0.0,0.0,,,not_found
44acb1ff-18e7-40de-822e-c7f32ad504e4-00008608,SQR Enterprises,Sundry Creditors,,,,0.0,0.0,,,not_found
44acb1ff-18e7-40de-822e-c7f32ad504e4-00000bde,Sri Ganesh Ji,Sundry Creditors,,,,0.0,0.0,,,not_found
44acb1ff-18e7-40de-822e-c7f32ad504e4-00000be0,Sri Mahalaxmi Ji,Sundry Creditors,,,,0.0,0.0,,,not_found
44acb1ff-18e7-40de-822e-c7f32ad504e4-000081fc,SRI MATI ENTERPRISES,Sundry Creditors,,,,0.0,0.0,,,not_found
44acb1ff-18e7-40de-822e-c7f32ad504e4-00000be2,Sri Parmeshwar Lal Dhandharia,Sundry Creditors,,,,0.0,0.0,,,not_found
44acb1ff-18e7-40de-822e-c7f32ad504e4-00000be3,Sri Ram Academy,Sundry Creditors,"2Nd Floor, Kanchan Tower, At Traffic Singnal, Main Road, Bistupur, Jamshedpur - 831001",,tally_mf_isr@yahoo.co.in,0.0,0.0,,,not_found
44acb1ff-18e7-40de-822e-c7f32ad504e4-00000be4,Sri Sakambari Mata Ji,Sundry Creditors,,,,0.0,0.0,,,not_found
44acb1ff-18e7-40de-822e-c7f32ad504e4-00000be9,S.S. Industries & Travel,Sundry Creditors,"174C, Jamnalal Bajaj Street, Gr. Floor, Kolkata. 700-007, Tel:033-32524140",03332524140,ssindustries04@yahoo.com,0.0,0.0,,,not_found
44acb1ff-18e7-40de-822e-c7f32ad504e4-00003fdb,S.S. Industries & Travel (Delhi),Sundry Creditors,,,,0.0,0.0,,,not_found
44acb1ff-18e7-40de-822e-c7f32ad504e4-0000418c,S.S.INDUSTRIES & TRAVEL(WB),Sundry Creditors,,,,0.0,0.0,,,not_found
44acb1ff-18e7-40de-822e-c7f32ad504e4-00003a04,S S Sales Corporation,Sundry Creditors,"L-2, Kalkaji, Neaar L- Block, Gurdwara, New Delhi - 110019",,,0.0,0.0,,,not_found
44acb1ff-18e7-40de-822e-c7f32ad504e4-00003ae5,S S Trading Company,Sundry Creditors,6190 Nawab Road Sadar Bazar Delhi,9899537600,nooruddin0786.ns@gmail.com,0.0,0.0,,,not_found
44acb1ff-18e7-40de-822e-c7f32ad504e4-0000388a,Star Health and Allied Insurance Ltd,Sundry Creditors,,,,0.0,0.0,,,not_found
44acb1ff-18e7-40de-822e-c7f32ad504e4-000041ba,Stripe India Private Limited,Sundry Creditors,"No.32, Next To Satvik Apartment,, Near National Convent, Vittal Nagar, Isro Layout,, Bengaluru Urban, Karnataka, 560078",+971524474455,nav@appello.ae,17607.09,635817.24,,,not_found
44acb1ff-18e7-40de-822e-c7f32ad504e4-00003e2c,Stylo Exports,Sundry Creditors,"6-45-164 , Main Road, Thagarapuvalasa, Visakhapatnam, Andhra Pradesh, 530048",,,0.0,0.0,,,not_found
44acb1ff-18e7-40de-822e-c7f32ad504e4-00008167,SUDERSHAN ELECTRIC INDUSTRIES,Sundry Creditors,,,,189.0,189.0,,,not_found
44acb1ff-18e7-40de-822e-c7f32ad504e4-000013b9,Sudha Ent Udyog,Sundry Creditors,,,,0.0,0.0,,,not_found
44acb1ff-18e7-40de-822e-c7f32ad504e4-0000864f,Sujata Rajendra Lokare,Sundry Creditors,,,,0.0,0.0,,,not_found
44acb1ff-18e7-40de-822e-c7f32ad504e4-0000124e,Sukumar Agency,Sundry Creditors,"Supplier Of Packaged Drinking Water, Behind Jony Liver Office, Saint Merry Road, Mazgaon, Mumbai 400 010.",,,0.0,0.0,,,not_found
44acb1ff-18e7-40de-822e-c7f32ad504e4-0000410c,Sumitra Devi W/o Phoolchand Sharma,Sundry Creditors,Udaipurwati Jhunjhunu,,,0.0,0.0,,,not_found
44acb1ff-18e7-40de-822e-c7f32ad504e4-00003bff,Sunil Sharma,Sundry Creditors,"Prescon Grips, Prestige Precinct, Panch Pakhadi, Thane (W)",,,0.0,0.0,,,not_found
44acb1ff-18e7-40de-822e-c7f32ad504e4-00003b27,Sunita Gurav,Sundry Creditors,,,,0.0,0.0,,,not_found
44acb1ff-18e7-40de-822e-c7f32ad504e4-000084fd,Sunita Pawan Agarwal,Sundry Creditors,,,,0.0,-33000.0,,,not_found
44acb1ff-18e7-40de-822e-c7f32ad504e4-00008182,Super LPG Appliances Pvt Ltd,Sundry Creditors,,,,4244.0,4244.0,,,not_found
44acb1ff-18e7-40de-822e-c7f32ad504e4-000080d4,S.V. ELECTRONICS PRIVATE LIMITED,Sundry Creditors,,,,-98.0,-98.0,,,not_found
44acb1ff-18e7-40de-822e-c7f32ad504e4-0000821a,SWAMI SAMARTH TRAVELS,Sundry Creditors,,,,-30000.0,-30000.0,,,not_found
44acb1ff-18e7-40de-822e-c7f32ad504e4-00003c28,Swastik Enterprises(N.Mumbai),Sundry Creditors,"Bhumiraj Manor Shop Ko- 25/26, Sector -14 Sanpada Near Buddheshwar Mandir, Navi Mumbai - 400705",,kumarshitalg@gmail.com,0.0,0.0,,,not_found
44acb1ff-18e7-40de-822e-c7f32ad504e4-00000c27,Sweeper,Sundry Creditors,,,,-1312.0,-3179.0,,,not_found
44acb1ff-18e7-40de-822e-c7f32ad504e4-00008376,SYMBOLIST TECHNOLOGY PRIVATE LIMITED,Sundry Creditors,"255, Jai Hind Co-Op Hsg Society R3 Wing, Mahatma Phule Nagar Khartan Road, Thane Maharashtra 400601",,,0.0,0.0,,,not_found
44acb1ff-18e7-40de-822e-c7f32ad504e4-000020bb,T,Sundry Creditors,,,,0.0,0.0,,,not_found
44acb1ff-18e7-40de-822e-c7f32ad504e4-000027d4,Tally Education Pvt Ltd,Sundry Creditors,,,,0.0,0.0,,,not_found
44acb1ff-18e7-40de-822e-c7f32ad504e4-00000c30,Tally India Private Ltd.,Sundry Creditors,"331-336, Raheja Arcade, Koramangala, Bengaluru, Karnataka, India - 560095",+912242682559,accounts.mumbai@tallysolutions.com;manoj.ranjane@tallysolutions.com; sharmila.dhage@tallysolutions.com; aravind.ks@tallysolutions.com;accounts@tallysolutions.com,-38973.0,-38973.0,,,not_found
44acb1ff-18e7-40de-822e-c7f32ad504e4-000031ee,Taloja Manufacturers Association,Sundry Creditors,"P-21, Midc Taloja, Panvel, Raigad",022274129591605,tma.taloja@gmail.com,0.0,0.0,,,not_found
44acb1ff-18e7-40de-822e-c7f32ad504e4-0000263d,Tanmoy Chatterjee,Sundry Creditors,"Falt No 9 D , 9 Th Floor, Tower 9, Diamond City West, 18 Ho-Chi-Minh Sarani, Bakultala(Nr., Behala Chowrasta), Behala, Kolkata-61",,,0.0,0.0,,,not_found
44acb1ff-18e7-40de-822e-c7f32ad504e4-000033a4,Tara Corporate Services Limited,Sundry Creditors,"D-68,First Floor Aruna Park Opp To Metro Pillar No, 50 Shakarpur New Delhi",,,234200.0,234200.0,,,not_found
44acb1ff-18e7-40de-822e-c7f32ad504e4-00003fd4,Tata Sky Limited,Sundry Creditors,,,,0.0,0.0,,,not_found
44acb1ff-18e7-40de-822e-c7f32ad504e4-00001a17,Tata Tele Services(Maharastra) Ltd.,Sundry Creditors,"Voltas Premises, T.B. Kadam Marg, Chinch Pokali, Mumbai 400033",,,0.0,0.0,,,not_found
44acb1ff-18e7-40de-822e-c7f32ad504e4-0000354c,TAU TV Corporation,Sundry Creditors,"4/2A, Rambaug Colony, Sadashiv Peth, Pune, Maharashtra, 411030",,,0.0,0.0,,,not_found
44acb1ff-18e7-40de-822e-c7f32ad504e4-0000302a,TCI Express Ltd,Sundry Creditors,"Mr, Manpada , Thane, Mob : 9930615234",,,0.0,0.0,,,not_found
44acb1ff-18e7-40de-822e-c7f32ad504e4-00005c30,Team IHA LLP,Sundry Creditors,"Level 18 Dlf Centre Building No. 5, Tower A, Phase 3 Gurgaon Haryana 122002",,accounts@teamihallp.com/aman@teamihallp.com,0.0,0.0,,,not_found
44acb1ff-18e7-40de-822e-c7f32ad504e4-00006062,Team IHA LLP(G),Sundry Creditors,"Level 18 Dlf Centre Building No. 5, Tower A, Phase 3 Gurgaon Haryana 122002",,accounts@teamihallp.com/aman@teamihallp.com,-4924.0,-4924.0,,,not_found
44acb1ff-18e7-40de-822e-c7f32ad504e4-00001ec3,TeamViewer GmbH,Sundry Creditors,"Jahnstr.30 73037 G�Ppingen, Germany",0008001007955,sales@teamviewer.com,0.0,0.0,,,not_found
44acb1ff-18e7-40de-822e-c7f32ad504e4-00003a80,Tech Connect Retail Pvt Ltd,Sundry Creditors,"New Era Warehousing, Near Rasayani, Vanivaii, Maharashtra - 410220",,,2089.0,2089.0,,,not_found
44acb1ff-18e7-40de-822e-c7f32ad504e4-00001bd1,Techfactory Solutions LLP,Sundry Creditors,"No 217/96, Swamy Naicken Street, Chintadripet, Chennai-600002",,,0.0,0.0,,,not_found
44acb1ff-18e7-40de-822e-c7f32ad504e4-00003f48,TECHMINDS INFRASOL PRIVATE LIMITED,Sundry Creditors,,,,0.0,4948.0,,,not_found
44acb1ff-18e7-40de-822e-c7f32ad504e4-00003ea0,Techno Life India,Sundry Creditors,"Wb-10/11, Renaissance Logistics Park, Near Vill. Padgha, Off. Nh-3, Taluka Bhiwandi,District, Thane, Maharashtra, 421302",,,0.0,0.0,,,not_found
44acb1ff-18e7-40de-822e-c7f32ad504e4-00001339,Tech Zone,Sundry Creditors,"47, Banganga Road, Walkeshwar Road, Malabar Hill, Mumbai - 400006",0228108884700,tarun.udeshi@gmail.com,0.0,0.0,,,not_found
44acb1ff-18e7-40de-822e-c7f32ad504e4-0000605e,Thana Battery Service,Sundry Creditors,"Shop No. Rajanigandha Lbs Marg Opp, Vandana Cinema Thane-400602",253612809324399132,thanabattery@gmail.com,0.0,0.0,,,not_found
44acb1ff-18e7-40de-822e-c7f32ad504e4-00008477,Thane Properties,Sundry Creditors,,,,0.0,0.0,,,not_found
44acb1ff-18e7-40de-822e-c7f32ad504e4-00003f18,The Mobile,Sundry Creditors,"8, Shiv Shilpa Laghu Udyog, Opp Lok Upvan, Vasant Vihar, Thane West - 400601",9987365656,themobile8567@gmail.com,0.0,0.0,,,not_found
44acb1ff-18e7-40de-822e-c7f32ad504e4-000039e5,The NewAge Inc,Sundry Creditors,"Gf 3A-3J Ground Floor, Amba Deep, Gf 3A-3J Ground Floor, Amba Deep",,sales@vedapulse.in,0.0,0.0,,,not_found
44acb1ff-18e7-40de-822e-c7f32ad504e4-00003745,Tiaraz Traders,Sundry Creditors,"Kh No 18//21, 19//25, 34//5, 6, 7/1 Min, 14/2/2, Min, 15/1 Min, 27, 35//1, 7, 8, 9/1, 9/2, 10/1, 10/2, 11 Min, 12, 13, 14, Village - Jamalpur, Gurgaon, Haryana, 122503",,,0.0,0.0,,,not_found
44acb1ff-18e7-40de-822e-c7f32ad504e4-00003c4b,Tiger Pug Commerce Pvt Ltd,Sundry Creditors,"Dhl Supply Chain India Pvt. Ltd., K-Square,, Kurund Village, Opp. Oye Punjabi Restaurant,, Mumbai-Nashik Highway, Bhiwandi, Bhiwandi, Maharashtra, 421101",,,0.0,0.0,,,not_found
44acb1ff-18e7-40de-822e-c7f32ad504e4-00004b6f,Tirupati Biz Link Llp,Sundry Creditors,"308-309, 3Rd Floor, Nirma Plaza, Makwana Road, Marol Naka, Andheri, East, Mumbai, Mumbai Suburban, Maharashtra, 400059",,,0.0,0.0,,,not_found
44acb1ff-18e7-40de-822e-c7f32ad504e4-00003ac6,Tital Company Limited,Sundry Creditors,"31 And 22, Tital Company Limited, Phase - I, Sipcot Industrial Complex, Hosur Krishnagiri, Tamilnadu, 635126",,,0.0,0.0,,,not_found
44acb1ff-18e7-40de-822e-c7f32ad504e4-00003ac7,Titan Company Limited,Sundry Creditors,"21 And 22, Titan Company Limited, Phase - I, Sipcot Industrial Complex, Hosur Krishnagiri, Tamil Nadu - 635126",,,0.0,0.0,,,not_found
44acb1ff-18e7-40de-822e-c7f32ad504e4-0000414f,TITAN COMPANY LIMITED,Sundry Creditors,,,,0.0,0.0,,,not_found
44acb1ff-18e7-40de-822e-c7f32ad504e4-00003fe1,TMA-FEDERATION OF INDUSTRIES,Sundry Creditors,,,,0.0,0.0,,,not_found
44acb1ff-18e7-40de-822e-c7f32ad504e4-000081e0,Toriox,Sundry Creditors,,,,198.0,198.0,,,not_found
44acb1ff-18e7-40de-822e-c7f32ad504e4-00005175,TRENDMOVERS INTERNATIONAL,Sundry Creditors,,,,0.0,0.0,,,not_found
44acb1ff-18e7-40de-822e-c7f32ad504e4-00003b96,Trend Road,Sundry Creditors,"D-42/68, Shyam Vihar, Phase -2, Najafgarh, New, Delhi-110043",,,0.0,0.0,,,not_found
44acb1ff-18e7-40de-822e-c7f32ad504e4-0000818b,TRENDY LUGGAGE,Sundry Creditors,,,,0.0,0.0,,,not_found
44acb1ff-18e7-40de-822e-c7f32ad504e4-00005798,TRINY,Sundry Creditors,,,,17211.0,17211.0,,,not_found
44acb1ff-18e7-40de-822e-c7f32ad504e4-000042fa,Trophy Junction,Sundry Creditors,"Shop No 1 Gulshan-E-Mohiuddin V.I.P. Road Triangle, Retghat Bhopal, Madhya Pradesh, 462001",,,0.0,0.0,,,not_found
44acb1ff-18e7-40de-822e-c7f32ad504e4-000036d1,Tu Retail Service Private Limited,Sundry Creditors,"Shop No.2Ashar Millennia Rdquo At Kapur, Bawdi Ghodbunder Road Chitalsar Manpada, Thane West Mumbai",18001036286,,0.0,0.0,,,not_found
44acb1ff-18e7-40de-822e-c7f32ad504e4-000049ce,Tushar Balwant More,Sundry Creditors,,,,0.0,0.0,,,not_found
44acb1ff-18e7-40de-822e-c7f32ad504e4-00003c40,"Twilio, Inc.",Sundry Creditors,"375 Beale Street, Suite 300, San Francisco, Ca 94105",,,0.0,0.0,,,not_found
44acb1ff-18e7-40de-822e-c7f32ad504e4-00006024,Ultahost,Sundry Creditors,"651 N Broad St. Suite 206., Middletown/Delaware, Postal Code: 19709",,info@ultahost.com,-23173.54,0.0,,,not_found
44acb1ff-18e7-40de-822e-c7f32ad504e4-000032ab,Umesh Chandra Behera,Sundry Creditors,"Mr.Umesh Chandra Behera, Plot.No:406, Hilton Centre, Sector-11,Cbd Belapur, Navi Mumbai-400614",,studentindia.umesh@gmail.com,0.0,0.0,,,not_found
44acb1ff-18e7-40de-822e-c7f32ad504e4-00003c9c,Uneecops Business Solution Pvt Ltd,Sundry Creditors,"B-59 Sector 63 Noida, Uttar Pradesh ? 210301",,rupam.saxena@uneecops.com,0.0,0.0,,,not_found
44acb1ff-18e7-40de-822e-c7f32ad504e4-00003e43,Uneecops Business Solutions Pvt. Ltd.,Sundry Creditors,"A-67, Sector 63, Noida- 201301",+911149899944,invoice@uneecops.com,0.0,0.0,,,not_found
44acb1ff-18e7-40de-822e-c7f32ad504e4-0000603b,Unicorn Infosolutions Pvt. Ltd,Sundry Creditors,"Shop No-17/117,Aum Supreme Bail Bazar, Next To D Mart Kalyan (W), Kalyan 421301",,sales@uipl.co.in,40000.0,40000.0,,,not_found
44acb1ff-18e7-40de-822e-c7f32ad504e4-00001031,Unique Consultants,Sundry Creditors,"Shop No-10, Lakhani,S Galaxy, Plot No-83, Sector -15, Next To Reliance Fresh, Cbd Belapur, Navi Mumbai- 400 614., Tel : 022- 2758 3333 / 0 98208 05522",0222758333309820805522,hr@uniqueconsultants.net ;minal.uniqueconsultants@gmail.com,0.0,0.0,,,not_found
44acb1ff-18e7-40de-822e-c7f32ad504e4-0000335d,Unique Kitchenware,Sundry Creditors,"Mr, Plot No G - 1374 , Opp Signor Polymers Pvt Ltd , 3Rd Gate , Metoda Gidc Lodhika , Rajkot, Rajkot Mob : 9558311500",,,0.0,0.0,,,not_found
44acb1ff-18e7-40de-822e-c7f32ad504e4-00003cb2,United Traders ( Cr ),Sundry Creditors,"Kh No 799, Karhera Mohan Nagar, Sahibabad, Ghaziabad, Uttar Pradesh, 201007",,,0.0,0.0,,,not_found
44acb1ff-18e7-40de-822e-c7f32ad504e4-00003671,Universal Specialities,Sundry Creditors,"288/3682, Tagore Nagar, Group No 2, Vikhroli ( E), Mumbai - 400083",,,0.0,0.0,,,not_found
44acb1ff-18e7-40de-822e-c7f32ad504e4-0000857f,Usman Ansari,Sundry Creditors,,,,0.0,0.0,,,not_found
44acb1ff-18e7-40de-822e-c7f32ad504e4-00005176,VALANGAR ENTERPRISE,Sundry Creditors,,,,0.0,0.0,,,not_found
44acb1ff-18e7-40de-822e-c7f32ad504e4-000010e7,Valueleaf Services India Pvt Ltd,Sundry Creditors,"No.219, 1St Floor, Gajanana Towers, 9Th Cross, Jp Nagar 2Nd Phase, Bangalore ? 560 078, E-Mail :Accounts@Valueleaf.Com",08043595960,accounts@valueleaf.com,0.0,0.0,,,not_found
44acb1ff-18e7-40de-822e-c7f32ad504e4-000042f9,VARADA,Sundry Creditors,"A-111, Sirsi Road, Behind Andhra Bank Jaipur, Rajasthan, 302021",,,0.0,0.0,,,not_found
44acb1ff-18e7-40de-822e-c7f32ad504e4-00003549,Vardhman Tele Marketing,Sundry Creditors,"Unit No. 1, Khewat/ Khata No: 373/ 400 Mustatil, No 31, Village Taoru, Tehsil Taoru, District, Mewat, On Bilaspur Taoru Road, Mewat, Haryana, 122105",,,0.0,0.0,,,not_found
44acb1ff-18e7-40de-822e-c7f32ad504e4-00008164,VARENYAM TRADING CO,Sundry Creditors,,,,289.0,289.0,,,not_found
44acb1ff-18e7-40de-822e-c7f32ad504e4-00000c80,Variety Infotech,Sundry Creditors,"Gaondevi Bhaji Market Building, Gokhale Road, Near Hanuman Mandir, Naupada, Thane ( W ), Mumbai 400 602., Tel No. 2530 3195.",022251509132502520625109927,varietyinfotech@gmail.com,0.0,800.0,,,not_found
44acb1ff-18e7-40de-822e-c7f32ad504e4-00008415,Ved Prakash So Vijay Bahadur,Sundry Creditors,,,,0.0,2205.0,,,not_found
44acb1ff-18e7-40de-822e-c7f32ad504e4-00003a8b,Verizon Communications India Private Limited,Sundry Creditors,"5/F (Wing B), Etamin Block, Prestige Technolog, Park Ii, Marathahalli ? Sarjapur Outer Ring Road, Bangalore, Karanatka-560103",,ysbindiasupport@help.yahoosmallbusiness.com,0.0,0.0,,,not_found
44acb1ff-18e7-40de-822e-c7f32ad504e4-0000607d,Vijay Sales,Sundry Creditors,,,,0.0,91000.0,,,not_found
44acb1ff-18e7-40de-822e-c7f32ad504e4-00003a6d,Vikas Book Agency ( Cr ),Sundry Creditors,"1/2, Thanawalla Apts., Kharkar Lane, Jambli Naka, Thane West 400601",02225337336,vikasbookagency@rediffmail.com,0.0,0.0,,,not_found
44acb1ff-18e7-40de-822e-c7f32ad504e4-000084b5,Vikash agrwal,Sundry Creditors,,,,0.0,0.0,,,not_found
44acb1ff-18e7-40de-822e-c7f32ad504e4-0000281d,Vikash Sharma,Sundry Creditors,"Behind Mandi Samiti, Patihan Road, Palia Kalan Distt Lakhimpur Kheri, U.P. Pin-262902",9455220000,vikashbhira@gmail.com,108.0,108.0,,,not_found
44acb1ff-18e7-40de-822e-c7f32ad504e4-00000c99,Vinod Sharma,Sundry Creditors,,06657220088,vinodsharma.india@gmail.com,0.0,0.0,,,not_found
44acb1ff-18e7-40de-822e-c7f32ad504e4-0000327d,Virtual Education Trust,Sundry Creditors,"Assessment Off- Ru-3, 2Nd Floor, Dda Commercial Complex, Ru Block, Outer Ring Road, New Delhi-110034",,,0.0,0.0,,,not_found
44acb1ff-18e7-40de-822e-c7f32ad504e4-00008411,Vishal Chhajer,Sundry Creditors,,,,0.0,-16.0,,,not_found
44acb1ff-18e7-40de-822e-c7f32ad504e4-00001a2b,Vivek Dattaram Mordekar,Sundry Creditors,"Mobile No.9822122298, Email Id :-Mordekar@Sify.Com",,mordekar@sify.com,0.0,0.0,,,not_found
44acb1ff-18e7-40de-822e-c7f32ad504e4-00000ca2,Vivek Mordekar,Sundry Creditors,,,,0.0,0.0,,,not_found
44acb1ff-18e7-40de-822e-c7f32ad504e4-00003a63,Vodafone Idea Limited,Sundry Creditors,,,,0.0,0.0,,,not_found
44acb1ff-18e7-40de-822e-c7f32ad504e4-0000292e,Vodafone India Ltd,Sundry Creditors,"2Nd Floor , Skylinelcon , 86/92, Andheri-Kurla Road Marol Naka, Nr. Mittal Estate, Tel :- 9820015032",,,0.0,0.0,,,not_found
44acb1ff-18e7-40de-822e-c7f32ad504e4-0000579a,VRAJRAJ CREATION,Sundry Creditors,,,,0.0,0.0,,,not_found
44acb1ff-18e7-40de-822e-c7f32ad504e4-00005177,VRP TELEMATICS PRIVATE LIMITED,Sundry Creditors,,,,0.0,0.0,,,not_found
44acb1ff-18e7-40de-822e-c7f32ad504e4-00003a05,W B Group,Sundry Creditors,"Birkharam Complex, D-96, 1St Floor, Shop No - 2, Opp- Community Center, Munirka Village, New Delhi - 110067",,,0.0,0.0,,,not_found
44acb1ff-18e7-40de-822e-c7f32ad504e4-0000286b,Weather Cool Engineers,Sundry Creditors,"Shop No 103, Anand Laxmi Chambers Chs Ltd, Opp Waman Hari Pethe Sons, Naupada, B Cabin, Thane West - 400602",02225386123,weathercool2007@rediffmail.com,0.0,0.0,,,not_found
44acb1ff-18e7-40de-822e-c7f32ad504e4-000081b1,WINSPIR CREATIONS PRIVATE LIMITED,Sundry Creditors,,,,0.0,0.0,,,not_found
44acb1ff-18e7-40de-822e-c7f32ad504e4-0000366e,Wohlstand Enterprises,Sundry Creditors,"Bldg No 151/4619 .Kannamwar No.1, Vikhroli East",,,0.0,0.0,,,not_found
44acb1ff-18e7-40de-822e-c7f32ad504e4-000084e6,WorkIndia,Sundry Creditors,"3Rd Floor, 437, Hustlehub Clomoso Technologies, 17Th Cross, Road, Happy Furnitures And Interiors, Hsr Layout, Bengaluru, Karnataka-560102",,,0.0,5192.0,,,not_found
44acb1ff-18e7-40de-822e-c7f32ad504e4-00003a67,Xiomi Technology India Private Limited,Sundry Creditors,"Xiomi Technology India Private Limited, K-Square, Kurund Village, Opp Urban Tadka Restaurant, Mumbai-Nashik Highway, Bhiwandi - 421101",,,0.0,0.0,,,not_found
44acb1ff-18e7-40de-822e-c7f32ad504e4-00005178,X-Lentt Enterprises,Sundry Creditors,,,,0.0,0.0,,,not_found
44acb1ff-18e7-40de-822e-c7f32ad504e4-0000287a,Yahoo India Pvt. Ltd,Sundry Creditors,"Torrey Pines, Embassy Golflink Business Parks, Domlur, Bangalore - 560 071, India, Name Of State Code: Karnataka 29",,,0.0,0.0,,,not_found
44acb1ff-18e7-40de-822e-c7f32ad504e4-00005710,YATRA ONLINE LIMITED,Sundry Creditors,,,,0.0,0.0,,,not_found
44acb1ff-18e7-40de-822e-c7f32ad504e4-00003f4d,YOUR ACCESSORIES STORE,Sundry Creditors,,,,0.0,0.0,,,not_found
44acb1ff-18e7-40de-822e-c7f32ad504e4-00008246,YUG STATIONERY MART,Sundry Creditors,"Unit No 8 Gr Floor A Wing Ashar Belieza, Raod No 16 Wagle Esate Tahne 400604",,,188.0,188.0,,,not_found
44acb1ff-18e7-40de-822e-c7f32ad504e4-00008620,Yukta Electronics,Sundry Creditors,"Shop No 1, Surbhi Apartment, Savarkar Nagar",,,0.0,-5900.0,,,not_found
44acb1ff-18e7-40de-822e-c7f32ad504e4-000042cc,ZIBBRI INDIA PRIVATE LIMITED,Sundry Creditors,Delhi,,,0.0,0.0,,,not_found
44acb1ff-18e7-40de-822e-c7f32ad504e4-00003f11,Zoom Video Communications Inc,Sundry Creditors,"55 Almaden Blvd, 6Th Floor, San Jose, Ca 95113",,billing@zoom.us,-12788.54,-12788.54,,,not_found
